<?xml version="1.0" encoding="UTF-8"?><gpx creator="https://trails-viewer.com" version="1.1" xmlns="http://www.topografix.com/GPX/1/1" xmlns:xsi="http://www.w3.org/2001/XMLSchema-instance" xsi:schemaLocation="http://www.topografix.com/GPX/1/1 http://www.topografix.com/GPX/1/1/gpx.xsd"><metadata><name>Traversée des Alpes du lac Léman à la mer Méditerranée</name><desc>https://fr-fr.trails-viewer.com/trail-z7ltj/Traversée-des-Alpes-du-lac-Léman-à-la-mer-Méditerranée/</desc><link href="https://fr-fr.trails-viewer.com/trail-z7ltj/Traversée-des-Alpes-du-lac-Léman-à-la-mer-Méditerranée/"></link></metadata><trk><name>Traversée des Alpes du lac Léman à la mer Méditerranée</name><desc>https://fr-fr.trails-viewer.com/trail-z7ltj/Traversée-des-Alpes-du-lac-Léman-à-la-mer-Méditerranée/</desc><link href="https://fr-fr.trails-viewer.com/trail-z7ltj/Traversée-des-Alpes-du-lac-Léman-à-la-mer-Méditerranée/"></link><trkseg><trkpt lat="46.39422" lon="6.80468"></trkpt><trkpt lat="46.39060" lon="6.80110"></trkpt><trkpt lat="46.38607" lon="6.80092"></trkpt><trkpt lat="46.38382" lon="6.80314"></trkpt><trkpt lat="46.38269" lon="6.80612"></trkpt><trkpt lat="46.38121" lon="6.80533"></trkpt><trkpt lat="46.38060" lon="6.80658"></trkpt><trkpt lat="46.37658" lon="6.80373"></trkpt><trkpt lat="46.37487" lon="6.79857"></trkpt><trkpt lat="46.37045" lon="6.79253"></trkpt><trkpt lat="46.36968" lon="6.78904"></trkpt><trkpt lat="46.36896" lon="6.78993"></trkpt><trkpt lat="46.36835" lon="6.78934"></trkpt><trkpt lat="46.36935" lon="6.78814"></trkpt><trkpt lat="46.36796" lon="6.78778"></trkpt><trkpt lat="46.36751" lon="6.78641"></trkpt><trkpt lat="46.36734" lon="6.78047"></trkpt><trkpt lat="46.36560" lon="6.77583"></trkpt><trkpt lat="46.36489" lon="6.77154"></trkpt><trkpt lat="46.36246" lon="6.76795"></trkpt><trkpt lat="46.36061" lon="6.77006"></trkpt><trkpt lat="46.35938" lon="6.76820"></trkpt><trkpt lat="46.35863" lon="6.76897"></trkpt><trkpt lat="46.35723" lon="6.76849"></trkpt><trkpt lat="46.35494" lon="6.77050"></trkpt><trkpt lat="46.35486" lon="6.76831"></trkpt><trkpt lat="46.35349" lon="6.76595"></trkpt><trkpt lat="46.35216" lon="6.76670"></trkpt><trkpt lat="46.35154" lon="6.76853"></trkpt><trkpt lat="46.35002" lon="6.76381"></trkpt><trkpt lat="46.34963" lon="6.75980"></trkpt><trkpt lat="46.34879" lon="6.75869"></trkpt><trkpt lat="46.34498" lon="6.76065"></trkpt><trkpt lat="46.34428" lon="6.75986"></trkpt><trkpt lat="46.34015" lon="6.76011"></trkpt><trkpt lat="46.33748" lon="6.76163"></trkpt><trkpt lat="46.33470" lon="6.76569"></trkpt><trkpt lat="46.33269" lon="6.76640"></trkpt><trkpt lat="46.33053" lon="6.76557"></trkpt><trkpt lat="46.33106" lon="6.76678"></trkpt><trkpt lat="46.32988" lon="6.76809"></trkpt><trkpt lat="46.32924" lon="6.77081"></trkpt><trkpt lat="46.32758" lon="6.77260"></trkpt><trkpt lat="46.32773" lon="6.77444"></trkpt><trkpt lat="46.32620" lon="6.77380"></trkpt><trkpt lat="46.32326" lon="6.77532"></trkpt><trkpt lat="46.31723" lon="6.78326"></trkpt><trkpt lat="46.31456" lon="6.78443"></trkpt><trkpt lat="46.31447" lon="6.78543"></trkpt><trkpt lat="46.31009" lon="6.78574"></trkpt><trkpt lat="46.30951" lon="6.78691"></trkpt><trkpt lat="46.30546" lon="6.78941"></trkpt><trkpt lat="46.29768" lon="6.78969"></trkpt><trkpt lat="46.29539" lon="6.78835"></trkpt><trkpt lat="46.29487" lon="6.79146"></trkpt><trkpt lat="46.29367" lon="6.79377"></trkpt><trkpt lat="46.29121" lon="6.79283"></trkpt><trkpt lat="46.29047" lon="6.79613"></trkpt><trkpt lat="46.28838" lon="6.79823"></trkpt><trkpt lat="46.28852" lon="6.80438"></trkpt><trkpt lat="46.28766" lon="6.80475"></trkpt><trkpt lat="46.28730" lon="6.80708"></trkpt><trkpt lat="46.28573" lon="6.80500"></trkpt><trkpt lat="46.28395" lon="6.80554"></trkpt><trkpt lat="46.28367" lon="6.80429"></trkpt><trkpt lat="46.28316" lon="6.80577"></trkpt><trkpt lat="46.28280" lon="6.80413"></trkpt><trkpt lat="46.28095" lon="6.80232"></trkpt><trkpt lat="46.28028" lon="6.80441"></trkpt><trkpt lat="46.27801" lon="6.80363"></trkpt><trkpt lat="46.27760" lon="6.80453"></trkpt><trkpt lat="46.27616" lon="6.80445"></trkpt><trkpt lat="46.26966" lon="6.80945"></trkpt><trkpt lat="46.26944" lon="6.80732"></trkpt><trkpt lat="46.27140" lon="6.80616"></trkpt><trkpt lat="46.27194" lon="6.80451"></trkpt><trkpt lat="46.26892" lon="6.80042"></trkpt><trkpt lat="46.26747" lon="6.80123"></trkpt><trkpt lat="46.26565" lon="6.79871"></trkpt><trkpt lat="46.26593" lon="6.79453"></trkpt><trkpt lat="46.26725" lon="6.79358"></trkpt><trkpt lat="46.26661" lon="6.79203"></trkpt><trkpt lat="46.26715" lon="6.79121"></trkpt><trkpt lat="46.26521" lon="6.79140"></trkpt><trkpt lat="46.26372" lon="6.79411"></trkpt><trkpt lat="46.26285" lon="6.79301"></trkpt><trkpt lat="46.26111" lon="6.79766"></trkpt><trkpt lat="46.26005" lon="6.79707"></trkpt><trkpt lat="46.26093" lon="6.79250"></trkpt><trkpt lat="46.26030" lon="6.79379"></trkpt><trkpt lat="46.25909" lon="6.79266"></trkpt><trkpt lat="46.25773" lon="6.79509"></trkpt><trkpt lat="46.25692" lon="6.79413"></trkpt><trkpt lat="46.25735" lon="6.79179"></trkpt><trkpt lat="46.25611" lon="6.79228"></trkpt><trkpt lat="46.25478" lon="6.79064"></trkpt><trkpt lat="46.25338" lon="6.79184"></trkpt><trkpt lat="46.24805" lon="6.79005"></trkpt><trkpt lat="46.24778" lon="6.78907"></trkpt><trkpt lat="46.24838" lon="6.78927"></trkpt><trkpt lat="46.24739" lon="6.78691"></trkpt><trkpt lat="46.24858" lon="6.77921"></trkpt><trkpt lat="46.24715" lon="6.77667"></trkpt><trkpt lat="46.24029" lon="6.78098"></trkpt><trkpt lat="46.23538" lon="6.77886"></trkpt><trkpt lat="46.23491" lon="6.77745"></trkpt><trkpt lat="46.23166" lon="6.77693"></trkpt><trkpt lat="46.22904" lon="6.77288"></trkpt><trkpt lat="46.22284" lon="6.77485"></trkpt><trkpt lat="46.22147" lon="6.77431"></trkpt><trkpt lat="46.22207" lon="6.77280"></trkpt><trkpt lat="46.22093" lon="6.77293"></trkpt><trkpt lat="46.21573" lon="6.77941"></trkpt><trkpt lat="46.21472" lon="6.78287"></trkpt><trkpt lat="46.21175" lon="6.78549"></trkpt><trkpt lat="46.21108" lon="6.78716"></trkpt><trkpt lat="46.20962" lon="6.78839"></trkpt><trkpt lat="46.20746" lon="6.78820"></trkpt><trkpt lat="46.20572" lon="6.79121"></trkpt><trkpt lat="46.20341" lon="6.79253"></trkpt><trkpt lat="46.19892" lon="6.79820"></trkpt><trkpt lat="46.19652" lon="6.80675"></trkpt><trkpt lat="46.19635" lon="6.81284"></trkpt><trkpt lat="46.19710" lon="6.81566"></trkpt><trkpt lat="46.19622" lon="6.81949"></trkpt><trkpt lat="46.19219" lon="6.82069"></trkpt><trkpt lat="46.19134" lon="6.82424"></trkpt><trkpt lat="46.19024" lon="6.82149"></trkpt><trkpt lat="46.18705" lon="6.82092"></trkpt><trkpt lat="46.18633" lon="6.82252"></trkpt><trkpt lat="46.18506" lon="6.82174"></trkpt><trkpt lat="46.18306" lon="6.82223"></trkpt><trkpt lat="46.18253" lon="6.82262"></trkpt><trkpt lat="46.18296" lon="6.82393"></trkpt><trkpt lat="46.18198" lon="6.82322"></trkpt><trkpt lat="46.17927" lon="6.82563"></trkpt><trkpt lat="46.17795" lon="6.82059"></trkpt><trkpt lat="46.17728" lon="6.81397"></trkpt><trkpt lat="46.17507" lon="6.81298"></trkpt><trkpt lat="46.17302" lon="6.81590"></trkpt><trkpt lat="46.17022" lon="6.81677"></trkpt><trkpt lat="46.16821" lon="6.81243"></trkpt><trkpt lat="46.16597" lon="6.80986"></trkpt><trkpt lat="46.16618" lon="6.80870"></trkpt><trkpt lat="46.16555" lon="6.80825"></trkpt><trkpt lat="46.16489" lon="6.80484"></trkpt><trkpt lat="46.16425" lon="6.80557"></trkpt><trkpt lat="46.16159" lon="6.80192"></trkpt><trkpt lat="46.15900" lon="6.80216"></trkpt><trkpt lat="46.15724" lon="6.79955"></trkpt><trkpt lat="46.15612" lon="6.79972"></trkpt><trkpt lat="46.15515" lon="6.79748"></trkpt><trkpt lat="46.15339" lon="6.79691"></trkpt><trkpt lat="46.15312" lon="6.79756"></trkpt><trkpt lat="46.15238" lon="6.79627"></trkpt><trkpt lat="46.15125" lon="6.79698"></trkpt><trkpt lat="46.14991" lon="6.79538"></trkpt><trkpt lat="46.15020" lon="6.79482"></trkpt><trkpt lat="46.14955" lon="6.79505"></trkpt><trkpt lat="46.15025" lon="6.79286"></trkpt><trkpt lat="46.14771" lon="6.79080"></trkpt><trkpt lat="46.14795" lon="6.78977"></trkpt><trkpt lat="46.14645" lon="6.78791"></trkpt><trkpt lat="46.14512" lon="6.78310"></trkpt><trkpt lat="46.14578" lon="6.78251"></trkpt><trkpt lat="46.14543" lon="6.78117"></trkpt><trkpt lat="46.14594" lon="6.78140"></trkpt><trkpt lat="46.14533" lon="6.77997"></trkpt><trkpt lat="46.14593" lon="6.77989"></trkpt><trkpt lat="46.14513" lon="6.77892"></trkpt><trkpt lat="46.14424" lon="6.77989"></trkpt><trkpt lat="46.14474" lon="6.77793"></trkpt><trkpt lat="46.14207" lon="6.78221"></trkpt><trkpt lat="46.14114" lon="6.78197"></trkpt><trkpt lat="46.13814" lon="6.77680"></trkpt><trkpt lat="46.13678" lon="6.77627"></trkpt><trkpt lat="46.13623" lon="6.77196"></trkpt><trkpt lat="46.13683" lon="6.76942"></trkpt><trkpt lat="46.13592" lon="6.76772"></trkpt><trkpt lat="46.13695" lon="6.76663"></trkpt><trkpt lat="46.13552" lon="6.76648"></trkpt><trkpt lat="46.13396" lon="6.76430"></trkpt><trkpt lat="46.13145" lon="6.76387"></trkpt><trkpt lat="46.13132" lon="6.76097"></trkpt><trkpt lat="46.12925" lon="6.76071"></trkpt><trkpt lat="46.12997" lon="6.76286"></trkpt><trkpt lat="46.12982" lon="6.76151"></trkpt><trkpt lat="46.12925" lon="6.76071"></trkpt><trkpt lat="46.12863" lon="6.75995"></trkpt><trkpt lat="46.12794" lon="6.75946"></trkpt><trkpt lat="46.12715" lon="6.75820"></trkpt><trkpt lat="46.12644" lon="6.75770"></trkpt><trkpt lat="46.12575" lon="6.75586"></trkpt><trkpt lat="46.12143" lon="6.75197"></trkpt><trkpt lat="46.12066" lon="6.74830"></trkpt><trkpt lat="46.11949" lon="6.74693"></trkpt><trkpt lat="46.11888" lon="6.74008"></trkpt><trkpt lat="46.11679" lon="6.74236"></trkpt><trkpt lat="46.11474" lon="6.74286"></trkpt><trkpt lat="46.11561" lon="6.74727"></trkpt><trkpt lat="46.11256" lon="6.75024"></trkpt><trkpt lat="46.11065" lon="6.74850"></trkpt><trkpt lat="46.11037" lon="6.74763"></trkpt><trkpt lat="46.11094" lon="6.74706"></trkpt><trkpt lat="46.10916" lon="6.74481"></trkpt><trkpt lat="46.10776" lon="6.74510"></trkpt><trkpt lat="46.10539" lon="6.74383"></trkpt><trkpt lat="46.10327" lon="6.74593"></trkpt><trkpt lat="46.10351" lon="6.74298"></trkpt><trkpt lat="46.09789" lon="6.74217"></trkpt><trkpt lat="46.09652" lon="6.74276"></trkpt><trkpt lat="46.09594" lon="6.74169"></trkpt><trkpt lat="46.09280" lon="6.74103"></trkpt><trkpt lat="46.08716" lon="6.73722"></trkpt><trkpt lat="46.08537" lon="6.73422"></trkpt><trkpt lat="46.08401" lon="6.73394"></trkpt><trkpt lat="46.08392" lon="6.73481"></trkpt><trkpt lat="46.08209" lon="6.73372"></trkpt><trkpt lat="46.07634" lon="6.72718"></trkpt><trkpt lat="46.07577" lon="6.73020"></trkpt><trkpt lat="46.07085" lon="6.73275"></trkpt><trkpt lat="46.06826" lon="6.73623"></trkpt><trkpt lat="46.06290" lon="6.73851"></trkpt><trkpt lat="46.05926" lon="6.74584"></trkpt><trkpt lat="46.05871" lon="6.74360"></trkpt><trkpt lat="46.05772" lon="6.74457"></trkpt><trkpt lat="46.05504" lon="6.75096"></trkpt><trkpt lat="46.05570" lon="6.75508"></trkpt><trkpt lat="46.05370" lon="6.75743"></trkpt><trkpt lat="46.05287" lon="6.76016"></trkpt><trkpt lat="46.05312" lon="6.76233"></trkpt><trkpt lat="46.05095" lon="6.76426"></trkpt><trkpt lat="46.04772" lon="6.76401"></trkpt><trkpt lat="46.04788" lon="6.76512"></trkpt><trkpt lat="46.04685" lon="6.76686"></trkpt><trkpt lat="46.04673" lon="6.76942"></trkpt><trkpt lat="46.04685" lon="6.76686"></trkpt><trkpt lat="46.04788" lon="6.76512"></trkpt><trkpt lat="46.04762" lon="6.76430"></trkpt><trkpt lat="46.04461" lon="6.76382"></trkpt><trkpt lat="46.03918" lon="6.76578"></trkpt><trkpt lat="46.03864" lon="6.76876"></trkpt><trkpt lat="46.03625" lon="6.76992"></trkpt><trkpt lat="46.03560" lon="6.77163"></trkpt><trkpt lat="46.03303" lon="6.77230"></trkpt><trkpt lat="46.03328" lon="6.77072"></trkpt><trkpt lat="46.03257" lon="6.77138"></trkpt><trkpt lat="46.02984" lon="6.77063"></trkpt><trkpt lat="46.02823" lon="6.77219"></trkpt><trkpt lat="46.02518" lon="6.76913"></trkpt><trkpt lat="46.02080" lon="6.76808"></trkpt><trkpt lat="46.02024" lon="6.76661"></trkpt><trkpt lat="46.01521" lon="6.76175"></trkpt><trkpt lat="46.01212" lon="6.75996"></trkpt><trkpt lat="46.01438" lon="6.76503"></trkpt><trkpt lat="46.01363" lon="6.76563"></trkpt><trkpt lat="46.01466" lon="6.76644"></trkpt><trkpt lat="46.01522" lon="6.77067"></trkpt><trkpt lat="46.01620" lon="6.77166"></trkpt><trkpt lat="46.01670" lon="6.77759"></trkpt><trkpt lat="46.01611" lon="6.77853"></trkpt><trkpt lat="46.01337" lon="6.77896"></trkpt><trkpt lat="46.01000" lon="6.78358"></trkpt><trkpt lat="46.00709" lon="6.78475"></trkpt><trkpt lat="46.00720" lon="6.78623"></trkpt><trkpt lat="46.00519" lon="6.78845"></trkpt><trkpt lat="46.00442" lon="6.79191"></trkpt><trkpt lat="46.00335" lon="6.79284"></trkpt><trkpt lat="46.00186" lon="6.79234"></trkpt><trkpt lat="46.00219" lon="6.79723"></trkpt><trkpt lat="46.00146" lon="6.79729"></trkpt><trkpt lat="46.00158" lon="6.79829"></trkpt><trkpt lat="45.99874" lon="6.79934"></trkpt><trkpt lat="45.99715" lon="6.79747"></trkpt><trkpt lat="45.99674" lon="6.79859"></trkpt><trkpt lat="45.99454" lon="6.79906"></trkpt><trkpt lat="45.99352" lon="6.80041"></trkpt><trkpt lat="45.99068" lon="6.80106"></trkpt><trkpt lat="45.98842" lon="6.80021"></trkpt><trkpt lat="45.98801" lon="6.79915"></trkpt><trkpt lat="45.98628" lon="6.79973"></trkpt><trkpt lat="45.98525" lon="6.79817"></trkpt><trkpt lat="45.98189" lon="6.79783"></trkpt><trkpt lat="45.98028" lon="6.79640"></trkpt><trkpt lat="45.97968" lon="6.79776"></trkpt><trkpt lat="45.97828" lon="6.79652"></trkpt><trkpt lat="45.97807" lon="6.79759"></trkpt><trkpt lat="45.97751" lon="6.79655"></trkpt><trkpt lat="45.97632" lon="6.79649"></trkpt><trkpt lat="45.97627" lon="6.79969"></trkpt><trkpt lat="45.97546" lon="6.80068"></trkpt><trkpt lat="45.97222" lon="6.79856"></trkpt><trkpt lat="45.97168" lon="6.79968"></trkpt><trkpt lat="45.97266" lon="6.80328"></trkpt><trkpt lat="45.97074" lon="6.80887"></trkpt><trkpt lat="45.97141" lon="6.81026"></trkpt><trkpt lat="45.97131" lon="6.81240"></trkpt><trkpt lat="45.96940" lon="6.81779"></trkpt><trkpt lat="45.96735" lon="6.82117"></trkpt><trkpt lat="45.96772" lon="6.82258"></trkpt><trkpt lat="45.96952" lon="6.82391"></trkpt><trkpt lat="45.97017" lon="6.82558"></trkpt><trkpt lat="45.96945" lon="6.82528"></trkpt><trkpt lat="45.96960" lon="6.82732"></trkpt><trkpt lat="45.97022" lon="6.82840"></trkpt><trkpt lat="45.96428" lon="6.82648"></trkpt><trkpt lat="45.96063" lon="6.83073"></trkpt><trkpt lat="45.95597" lon="6.83308"></trkpt><trkpt lat="45.95478" lon="6.83479"></trkpt><trkpt lat="45.95265" lon="6.83556"></trkpt><trkpt lat="45.94996" lon="6.83444"></trkpt><trkpt lat="45.94852" lon="6.83550"></trkpt><trkpt lat="45.94692" lon="6.83519"></trkpt><trkpt lat="45.94707" lon="6.83633"></trkpt><trkpt lat="45.94601" lon="6.83705"></trkpt><trkpt lat="45.94636" lon="6.83765"></trkpt><trkpt lat="45.94343" lon="6.83973"></trkpt><trkpt lat="45.94344" lon="6.84082"></trkpt><trkpt lat="45.94174" lon="6.84191"></trkpt><trkpt lat="45.94136" lon="6.84354"></trkpt><trkpt lat="45.93997" lon="6.83875"></trkpt><trkpt lat="45.93877" lon="6.83757"></trkpt><trkpt lat="45.93195" lon="6.83685"></trkpt><trkpt lat="45.93144" lon="6.83649"></trkpt><trkpt lat="45.93197" lon="6.83477"></trkpt><trkpt lat="45.92635" lon="6.83357"></trkpt><trkpt lat="45.92513" lon="6.83143"></trkpt><trkpt lat="45.92527" lon="6.82976"></trkpt><trkpt lat="45.92384" lon="6.82949"></trkpt><trkpt lat="45.92426" lon="6.82866"></trkpt><trkpt lat="45.92339" lon="6.82823"></trkpt><trkpt lat="45.92212" lon="6.82952"></trkpt><trkpt lat="45.92230" lon="6.82819"></trkpt><trkpt lat="45.92059" lon="6.82687"></trkpt><trkpt lat="45.91652" lon="6.82776"></trkpt><trkpt lat="45.91348" lon="6.82483"></trkpt><trkpt lat="45.91255" lon="6.82117"></trkpt><trkpt lat="45.91057" lon="6.82027"></trkpt><trkpt lat="45.90692" lon="6.81140"></trkpt><trkpt lat="45.90652" lon="6.81446"></trkpt><trkpt lat="45.90416" lon="6.80709"></trkpt><trkpt lat="45.90381" lon="6.80176"></trkpt><trkpt lat="45.90306" lon="6.80231"></trkpt><trkpt lat="45.90268" lon="6.80064"></trkpt><trkpt lat="45.90215" lon="6.80310"></trkpt><trkpt lat="45.90137" lon="6.80272"></trkpt><trkpt lat="45.90053" lon="6.80469"></trkpt><trkpt lat="45.89805" lon="6.80273"></trkpt><trkpt lat="45.89728" lon="6.80034"></trkpt><trkpt lat="45.89388" lon="6.79787"></trkpt><trkpt lat="45.89358" lon="6.79923"></trkpt><trkpt lat="45.89244" lon="6.79994"></trkpt><trkpt lat="45.88993" lon="6.79807"></trkpt><trkpt lat="45.88924" lon="6.79518"></trkpt><trkpt lat="45.88933" lon="6.79075"></trkpt><trkpt lat="45.89068" lon="6.78650"></trkpt><trkpt lat="45.89262" lon="6.78541"></trkpt><trkpt lat="45.89198" lon="6.78357"></trkpt><trkpt lat="45.89254" lon="6.77936"></trkpt><trkpt lat="45.89202" lon="6.77780"></trkpt><trkpt lat="45.89078" lon="6.78054"></trkpt><trkpt lat="45.88890" lon="6.78019"></trkpt><trkpt lat="45.88989" lon="6.77835"></trkpt><trkpt lat="45.88925" lon="6.77883"></trkpt><trkpt lat="45.88846" lon="6.77711"></trkpt><trkpt lat="45.88768" lon="6.77708"></trkpt><trkpt lat="45.88801" lon="6.77422"></trkpt><trkpt lat="45.88655" lon="6.77424"></trkpt><trkpt lat="45.88700" lon="6.77359"></trkpt><trkpt lat="45.88575" lon="6.77120"></trkpt><trkpt lat="45.88681" lon="6.77098"></trkpt><trkpt lat="45.88658" lon="6.76602"></trkpt><trkpt lat="45.88418" lon="6.76365"></trkpt><trkpt lat="45.88375" lon="6.76123"></trkpt><trkpt lat="45.88157" lon="6.75997"></trkpt><trkpt lat="45.88025" lon="6.76110"></trkpt><trkpt lat="45.87943" lon="6.76017"></trkpt><trkpt lat="45.87723" lon="6.76021"></trkpt><trkpt lat="45.87679" lon="6.76141"></trkpt><trkpt lat="45.87605" lon="6.76036"></trkpt><trkpt lat="45.87580" lon="6.76192"></trkpt><trkpt lat="45.87470" lon="6.76247"></trkpt><trkpt lat="45.87283" lon="6.76006"></trkpt><trkpt lat="45.87137" lon="6.76210"></trkpt><trkpt lat="45.87006" lon="6.76121"></trkpt><trkpt lat="45.86965" lon="6.76229"></trkpt><trkpt lat="45.86782" lon="6.76020"></trkpt><trkpt lat="45.86669" lon="6.76050"></trkpt><trkpt lat="45.86568" lon="6.75682"></trkpt><trkpt lat="45.86461" lon="6.75551"></trkpt><trkpt lat="45.86239" lon="6.75898"></trkpt><trkpt lat="45.86089" lon="6.74847"></trkpt><trkpt lat="45.86173" lon="6.74451"></trkpt><trkpt lat="45.85924" lon="6.73830"></trkpt><trkpt lat="45.85985" lon="6.73518"></trkpt><trkpt lat="45.85579" lon="6.73574"></trkpt><trkpt lat="45.85324" lon="6.73371"></trkpt><trkpt lat="45.85199" lon="6.73509"></trkpt><trkpt lat="45.84847" lon="6.73591"></trkpt><trkpt lat="45.84652" lon="6.73759"></trkpt><trkpt lat="45.84589" lon="6.73935"></trkpt><trkpt lat="45.84578" lon="6.73367"></trkpt><trkpt lat="45.84427" lon="6.73281"></trkpt><trkpt lat="45.84335" lon="6.72862"></trkpt><trkpt lat="45.84328" lon="6.72775"></trkpt><trkpt lat="45.84424" lon="6.72704"></trkpt><trkpt lat="45.83908" lon="6.72522"></trkpt><trkpt lat="45.83881" lon="6.72418"></trkpt><trkpt lat="45.83841" lon="6.72516"></trkpt><trkpt lat="45.83438" lon="6.72535"></trkpt><trkpt lat="45.83300" lon="6.72670"></trkpt><trkpt lat="45.82883" lon="6.72648"></trkpt><trkpt lat="45.82769" lon="6.72559"></trkpt><trkpt lat="45.82506" lon="6.72627"></trkpt><trkpt lat="45.82231" lon="6.72509"></trkpt><trkpt lat="45.81737" lon="6.72759"></trkpt><trkpt lat="45.81504" lon="6.72600"></trkpt><trkpt lat="45.81081" lon="6.72751"></trkpt><trkpt lat="45.80889" lon="6.72727"></trkpt><trkpt lat="45.80495" lon="6.72486"></trkpt><trkpt lat="45.79969" lon="6.72388"></trkpt><trkpt lat="45.79116" lon="6.71567"></trkpt><trkpt lat="45.78665" lon="6.71293"></trkpt><trkpt lat="45.78456" lon="6.71262"></trkpt><trkpt lat="45.78155" lon="6.71548"></trkpt><trkpt lat="45.77791" lon="6.71423"></trkpt><trkpt lat="45.77509" lon="6.71587"></trkpt><trkpt lat="45.77195" lon="6.71579"></trkpt><trkpt lat="45.76111" lon="6.71099"></trkpt><trkpt lat="45.75898" lon="6.71044"></trkpt><trkpt lat="45.75785" lon="6.71109"></trkpt><trkpt lat="45.75586" lon="6.70827"></trkpt><trkpt lat="45.75475" lon="6.70788"></trkpt><trkpt lat="45.75042" lon="6.71046"></trkpt><trkpt lat="45.74891" lon="6.71371"></trkpt><trkpt lat="45.74717" lon="6.71546"></trkpt><trkpt lat="45.74658" lon="6.71811"></trkpt><trkpt lat="45.74520" lon="6.71603"></trkpt><trkpt lat="45.74289" lon="6.71547"></trkpt><trkpt lat="45.74068" lon="6.71361"></trkpt><trkpt lat="45.73804" lon="6.70993"></trkpt><trkpt lat="45.73766" lon="6.70785"></trkpt><trkpt lat="45.73505" lon="6.70659"></trkpt><trkpt lat="45.73386" lon="6.70846"></trkpt><trkpt lat="45.73101" lon="6.70850"></trkpt><trkpt lat="45.72951" lon="6.71020"></trkpt><trkpt lat="45.72809" lon="6.71039"></trkpt><trkpt lat="45.72582" lon="6.71280"></trkpt><trkpt lat="45.72501" lon="6.71667"></trkpt><trkpt lat="45.72192" lon="6.71745"></trkpt><trkpt lat="45.72205" lon="6.71618"></trkpt><trkpt lat="45.72063" lon="6.71460"></trkpt><trkpt lat="45.71819" lon="6.71451"></trkpt><trkpt lat="45.71660" lon="6.71185"></trkpt><trkpt lat="45.71243" lon="6.70878"></trkpt><trkpt lat="45.71053" lon="6.70469"></trkpt><trkpt lat="45.70938" lon="6.69992"></trkpt><trkpt lat="45.70967" lon="6.69577"></trkpt><trkpt lat="45.71154" lon="6.69442"></trkpt><trkpt lat="45.71023" lon="6.69224"></trkpt><trkpt lat="45.70957" lon="6.68894"></trkpt><trkpt lat="45.70624" lon="6.68332"></trkpt><trkpt lat="45.70294" lon="6.68312"></trkpt><trkpt lat="45.70296" lon="6.68071"></trkpt><trkpt lat="45.70126" lon="6.68269"></trkpt><trkpt lat="45.70147" lon="6.68086"></trkpt><trkpt lat="45.70025" lon="6.68135"></trkpt><trkpt lat="45.69955" lon="6.67916"></trkpt><trkpt lat="45.69882" lon="6.67928"></trkpt><trkpt lat="45.69455" lon="6.67417"></trkpt><trkpt lat="45.69302" lon="6.66993"></trkpt><trkpt lat="45.69329" lon="6.66874"></trkpt><trkpt lat="45.69237" lon="6.66741"></trkpt><trkpt lat="45.69276" lon="6.66603"></trkpt><trkpt lat="45.69162" lon="6.66596"></trkpt><trkpt lat="45.69092" lon="6.66113"></trkpt><trkpt lat="45.68898" lon="6.65742"></trkpt><trkpt lat="45.68496" lon="6.65657"></trkpt><trkpt lat="45.68399" lon="6.65241"></trkpt><trkpt lat="45.68032" lon="6.65105"></trkpt><trkpt lat="45.67961" lon="6.64818"></trkpt><trkpt lat="45.68001" lon="6.64717"></trkpt><trkpt lat="45.67876" lon="6.64656"></trkpt><trkpt lat="45.67795" lon="6.64476"></trkpt><trkpt lat="45.67570" lon="6.64465"></trkpt><trkpt lat="45.67576" lon="6.64350"></trkpt><trkpt lat="45.67483" lon="6.64451"></trkpt><trkpt lat="45.67421" lon="6.64313"></trkpt><trkpt lat="45.67054" lon="6.64108"></trkpt><trkpt lat="45.66835" lon="6.63726"></trkpt><trkpt lat="45.66656" lon="6.63834"></trkpt><trkpt lat="45.66642" lon="6.63669"></trkpt><trkpt lat="45.66580" lon="6.63726"></trkpt><trkpt lat="45.66473" lon="6.63580"></trkpt><trkpt lat="45.66296" lon="6.63754"></trkpt><trkpt lat="45.66257" lon="6.63692"></trkpt><trkpt lat="45.66140" lon="6.63887"></trkpt><trkpt lat="45.65698" lon="6.64020"></trkpt><trkpt lat="45.65348" lon="6.64385"></trkpt><trkpt lat="45.65083" lon="6.64140"></trkpt><trkpt lat="45.64787" lon="6.64290"></trkpt><trkpt lat="45.64875" lon="6.64605"></trkpt><trkpt lat="45.64751" lon="6.64724"></trkpt><trkpt lat="45.64581" lon="6.64703"></trkpt><trkpt lat="45.64722" lon="6.64982"></trkpt><trkpt lat="45.64706" lon="6.65126"></trkpt><trkpt lat="45.64611" lon="6.65372"></trkpt><trkpt lat="45.64493" lon="6.65396"></trkpt><trkpt lat="45.64502" lon="6.65777"></trkpt><trkpt lat="45.64385" lon="6.66177"></trkpt><trkpt lat="45.64209" lon="6.66298"></trkpt><trkpt lat="45.63863" lon="6.66313"></trkpt><trkpt lat="45.63581" lon="6.66191"></trkpt><trkpt lat="45.63318" lon="6.66418"></trkpt><trkpt lat="45.63239" lon="6.66536"></trkpt><trkpt lat="45.63192" lon="6.66892"></trkpt><trkpt lat="45.63422" lon="6.67305"></trkpt><trkpt lat="45.63257" lon="6.67507"></trkpt><trkpt lat="45.63096" lon="6.67570"></trkpt><trkpt lat="45.63110" lon="6.67452"></trkpt><trkpt lat="45.62322" lon="6.67886"></trkpt><trkpt lat="45.61830" lon="6.67837"></trkpt><trkpt lat="45.61202" lon="6.67958"></trkpt><trkpt lat="45.60817" lon="6.67655"></trkpt><trkpt lat="45.60523" lon="6.67648"></trkpt><trkpt lat="45.59992" lon="6.67460"></trkpt><trkpt lat="45.59798" lon="6.67612"></trkpt><trkpt lat="45.59165" lon="6.67709"></trkpt><trkpt lat="45.58881" lon="6.68234"></trkpt><trkpt lat="45.58632" lon="6.68341"></trkpt><trkpt lat="45.58392" lon="6.68638"></trkpt><trkpt lat="45.58320" lon="6.68532"></trkpt><trkpt lat="45.58210" lon="6.68718"></trkpt><trkpt lat="45.58228" lon="6.68823"></trkpt><trkpt lat="45.57982" lon="6.68982"></trkpt><trkpt lat="45.57822" lon="6.69288"></trkpt><trkpt lat="45.57686" lon="6.69255"></trkpt><trkpt lat="45.57614" lon="6.69344"></trkpt><trkpt lat="45.57532" lon="6.69231"></trkpt><trkpt lat="45.57553" lon="6.69367"></trkpt><trkpt lat="45.57250" lon="6.69293"></trkpt><trkpt lat="45.57310" lon="6.69858"></trkpt><trkpt lat="45.57240" lon="6.69873"></trkpt><trkpt lat="45.57203" lon="6.70149"></trkpt><trkpt lat="45.57298" lon="6.70508"></trkpt><trkpt lat="45.57267" lon="6.70694"></trkpt><trkpt lat="45.57207" lon="6.70621"></trkpt><trkpt lat="45.57204" lon="6.70781"></trkpt><trkpt lat="45.57091" lon="6.70818"></trkpt><trkpt lat="45.57090" lon="6.71078"></trkpt><trkpt lat="45.56989" lon="6.71224"></trkpt><trkpt lat="45.56901" lon="6.71210"></trkpt><trkpt lat="45.56972" lon="6.71686"></trkpt><trkpt lat="45.56777" lon="6.71454"></trkpt><trkpt lat="45.56654" lon="6.71529"></trkpt><trkpt lat="45.56630" lon="6.71715"></trkpt><trkpt lat="45.56558" lon="6.71526"></trkpt><trkpt lat="45.56283" lon="6.71594"></trkpt><trkpt lat="45.56225" lon="6.71765"></trkpt><trkpt lat="45.56105" lon="6.71813"></trkpt><trkpt lat="45.56165" lon="6.72856"></trkpt><trkpt lat="45.56089" lon="6.72894"></trkpt><trkpt lat="45.56149" lon="6.73347"></trkpt><trkpt lat="45.56084" lon="6.73563"></trkpt><trkpt lat="45.56035" lon="6.73404"></trkpt><trkpt lat="45.56017" lon="6.73587"></trkpt><trkpt lat="45.55813" lon="6.73479"></trkpt><trkpt lat="45.55453" lon="6.73717"></trkpt><trkpt lat="45.55426" lon="6.73904"></trkpt><trkpt lat="45.54986" lon="6.74203"></trkpt><trkpt lat="45.54989" lon="6.74130"></trkpt><trkpt lat="45.54864" lon="6.74319"></trkpt><trkpt lat="45.54600" lon="6.74464"></trkpt><trkpt lat="45.54454" lon="6.74799"></trkpt><trkpt lat="45.54311" lon="6.74899"></trkpt><trkpt lat="45.53938" lon="6.75578"></trkpt><trkpt lat="45.53818" lon="6.75655"></trkpt><trkpt lat="45.53818" lon="6.75996"></trkpt><trkpt lat="45.53308" lon="6.76760"></trkpt><trkpt lat="45.53134" lon="6.77396"></trkpt><trkpt lat="45.52949" lon="6.77584"></trkpt><trkpt lat="45.52714" lon="6.78463"></trkpt><trkpt lat="45.52399" lon="6.78606"></trkpt><trkpt lat="45.52484" lon="6.79132"></trkpt><trkpt lat="45.52337" lon="6.79783"></trkpt><trkpt lat="45.52097" lon="6.80022"></trkpt><trkpt lat="45.52033" lon="6.80295"></trkpt><trkpt lat="45.51861" lon="6.80243"></trkpt><trkpt lat="45.51861" lon="6.80490"></trkpt><trkpt lat="45.51648" lon="6.81008"></trkpt><trkpt lat="45.51554" lon="6.81466"></trkpt><trkpt lat="45.51373" lon="6.81794"></trkpt><trkpt lat="45.51367" lon="6.82630"></trkpt><trkpt lat="45.51435" lon="6.82750"></trkpt><trkpt lat="45.51346" lon="6.83034"></trkpt><trkpt lat="45.50939" lon="6.83404"></trkpt><trkpt lat="45.50600" lon="6.83507"></trkpt><trkpt lat="45.50562" lon="6.83715"></trkpt><trkpt lat="45.50291" lon="6.83715"></trkpt><trkpt lat="45.50127" lon="6.83862"></trkpt><trkpt lat="45.49921" lon="6.83825"></trkpt><trkpt lat="45.49488" lon="6.84114"></trkpt><trkpt lat="45.49290" lon="6.84118"></trkpt><trkpt lat="45.49133" lon="6.84365"></trkpt><trkpt lat="45.48982" lon="6.84263"></trkpt><trkpt lat="45.48667" lon="6.84392"></trkpt><trkpt lat="45.48512" lon="6.84619"></trkpt><trkpt lat="45.48101" lon="6.84790"></trkpt><trkpt lat="45.47936" lon="6.84985"></trkpt><trkpt lat="45.47303" lon="6.85148"></trkpt><trkpt lat="45.46888" lon="6.85533"></trkpt><trkpt lat="45.46192" lon="6.85553"></trkpt><trkpt lat="45.46130" lon="6.85666"></trkpt><trkpt lat="45.45958" lon="6.85711"></trkpt><trkpt lat="45.45812" lon="6.86143"></trkpt><trkpt lat="45.45610" lon="6.86079"></trkpt><trkpt lat="45.45640" lon="6.86306"></trkpt><trkpt lat="45.45560" lon="6.86818"></trkpt><trkpt lat="45.45604" lon="6.87087"></trkpt><trkpt lat="45.45465" lon="6.87557"></trkpt><trkpt lat="45.45553" lon="6.87923"></trkpt><trkpt lat="45.45505" lon="6.88102"></trkpt><trkpt lat="45.45580" lon="6.88731"></trkpt><trkpt lat="45.45818" lon="6.89150"></trkpt><trkpt lat="45.46325" lon="6.89359"></trkpt><trkpt lat="45.46599" lon="6.89746"></trkpt><trkpt lat="45.46611" lon="6.89983"></trkpt><trkpt lat="45.46857" lon="6.90593"></trkpt><trkpt lat="45.47003" lon="6.90692"></trkpt><trkpt lat="45.46985" lon="6.90779"></trkpt><trkpt lat="45.46897" lon="6.90767"></trkpt><trkpt lat="45.46774" lon="6.90999"></trkpt><trkpt lat="45.46417" lon="6.90824"></trkpt><trkpt lat="45.46437" lon="6.90536"></trkpt><trkpt lat="45.46283" lon="6.90092"></trkpt><trkpt lat="45.46476" lon="6.89878"></trkpt><trkpt lat="45.46604" lon="6.89967"></trkpt><trkpt lat="45.46546" lon="6.89886"></trkpt><trkpt lat="45.46440" lon="6.89864"></trkpt><trkpt lat="45.46296" lon="6.89899"></trkpt><trkpt lat="45.46112" lon="6.90057"></trkpt><trkpt lat="45.45849" lon="6.89907"></trkpt><trkpt lat="45.45906" lon="6.90171"></trkpt><trkpt lat="45.45425" lon="6.90259"></trkpt><trkpt lat="45.45110" lon="6.90526"></trkpt><trkpt lat="45.44757" lon="6.91460"></trkpt><trkpt lat="45.44322" lon="6.92118"></trkpt><trkpt lat="45.44124" lon="6.92217"></trkpt><trkpt lat="45.43809" lon="6.91961"></trkpt><trkpt lat="45.43568" lon="6.91608"></trkpt><trkpt lat="45.43188" lon="6.91548"></trkpt><trkpt lat="45.43119" lon="6.91319"></trkpt><trkpt lat="45.42454" lon="6.90806"></trkpt><trkpt lat="45.42205" lon="6.90445"></trkpt><trkpt lat="45.41439" lon="6.90432"></trkpt><trkpt lat="45.41258" lon="6.90357"></trkpt><trkpt lat="45.41094" lon="6.90022"></trkpt><trkpt lat="45.40885" lon="6.90084"></trkpt><trkpt lat="45.40924" lon="6.89986"></trkpt><trkpt lat="45.40860" lon="6.89751"></trkpt><trkpt lat="45.40459" lon="6.89435"></trkpt><trkpt lat="45.40172" lon="6.88634"></trkpt><trkpt lat="45.39968" lon="6.88696"></trkpt><trkpt lat="45.39831" lon="6.88578"></trkpt><trkpt lat="45.39344" lon="6.87504"></trkpt><trkpt lat="45.39281" lon="6.85338"></trkpt><trkpt lat="45.39167" lon="6.84889"></trkpt><trkpt lat="45.38666" lon="6.83956"></trkpt><trkpt lat="45.38320" lon="6.83596"></trkpt><trkpt lat="45.37755" lon="6.83397"></trkpt><trkpt lat="45.36932" lon="6.83752"></trkpt><trkpt lat="45.36282" lon="6.83682"></trkpt><trkpt lat="45.36151" lon="6.83886"></trkpt><trkpt lat="45.36164" lon="6.84259"></trkpt><trkpt lat="45.36023" lon="6.83678"></trkpt><trkpt lat="45.36076" lon="6.83554"></trkpt><trkpt lat="45.36009" lon="6.83557"></trkpt><trkpt lat="45.35941" lon="6.83390"></trkpt><trkpt lat="45.36094" lon="6.83266"></trkpt><trkpt lat="45.36067" lon="6.83143"></trkpt><trkpt lat="45.36183" lon="6.83116"></trkpt><trkpt lat="45.36069" lon="6.83078"></trkpt><trkpt lat="45.36146" lon="6.82986"></trkpt><trkpt lat="45.36024" lon="6.82973"></trkpt><trkpt lat="45.36114" lon="6.82847"></trkpt><trkpt lat="45.36031" lon="6.82863"></trkpt><trkpt lat="45.36019" lon="6.82689"></trkpt><trkpt lat="45.36248" lon="6.82473"></trkpt><trkpt lat="45.36118" lon="6.82337"></trkpt><trkpt lat="45.36117" lon="6.82229"></trkpt><trkpt lat="45.35982" lon="6.82147"></trkpt><trkpt lat="45.35950" lon="6.81963"></trkpt><trkpt lat="45.35643" lon="6.81435"></trkpt><trkpt lat="45.35718" lon="6.80840"></trkpt><trkpt lat="45.35650" lon="6.80481"></trkpt><trkpt lat="45.35670" lon="6.80014"></trkpt><trkpt lat="45.35531" lon="6.80016"></trkpt><trkpt lat="45.35465" lon="6.79901"></trkpt><trkpt lat="45.35341" lon="6.79989"></trkpt><trkpt lat="45.35124" lon="6.79493"></trkpt><trkpt lat="45.35029" lon="6.79572"></trkpt><trkpt lat="45.35021" lon="6.79461"></trkpt><trkpt lat="45.34823" lon="6.79405"></trkpt><trkpt lat="45.34777" lon="6.79565"></trkpt><trkpt lat="45.34815" lon="6.79857"></trkpt><trkpt lat="45.34290" lon="6.79889"></trkpt><trkpt lat="45.34160" lon="6.80253"></trkpt><trkpt lat="45.33829" lon="6.79806"></trkpt><trkpt lat="45.33710" lon="6.79827"></trkpt><trkpt lat="45.33507" lon="6.80101"></trkpt><trkpt lat="45.32947" lon="6.79851"></trkpt><trkpt lat="45.32837" lon="6.79713"></trkpt><trkpt lat="45.32053" lon="6.79589"></trkpt><trkpt lat="45.31810" lon="6.79150"></trkpt><trkpt lat="45.31605" lon="6.79194"></trkpt><trkpt lat="45.31361" lon="6.79417"></trkpt><trkpt lat="45.31059" lon="6.79474"></trkpt><trkpt lat="45.30519" lon="6.79889"></trkpt><trkpt lat="45.30317" lon="6.79919"></trkpt><trkpt lat="45.30154" lon="6.79657"></trkpt><trkpt lat="45.30189" lon="6.79187"></trkpt><trkpt lat="45.30083" lon="6.78988"></trkpt><trkpt lat="45.29934" lon="6.78855"></trkpt><trkpt lat="45.29861" lon="6.78942"></trkpt><trkpt lat="45.29760" lon="6.78887"></trkpt><trkpt lat="45.29664" lon="6.78989"></trkpt><trkpt lat="45.29561" lon="6.79348"></trkpt><trkpt lat="45.29423" lon="6.79372"></trkpt><trkpt lat="45.29103" lon="6.78829"></trkpt><trkpt lat="45.28956" lon="6.78844"></trkpt><trkpt lat="45.29000" lon="6.78775"></trkpt><trkpt lat="45.28795" lon="6.78569"></trkpt><trkpt lat="45.28231" lon="6.78125"></trkpt><trkpt lat="45.28183" lon="6.77839"></trkpt><trkpt lat="45.27437" lon="6.76943"></trkpt><trkpt lat="45.27230" lon="6.77112"></trkpt><trkpt lat="45.27034" lon="6.77601"></trkpt><trkpt lat="45.26829" lon="6.77475"></trkpt><trkpt lat="45.26581" lon="6.76859"></trkpt><trkpt lat="45.26334" lon="6.76637"></trkpt><trkpt lat="45.26443" lon="6.76012"></trkpt><trkpt lat="45.26204" lon="6.75916"></trkpt><trkpt lat="45.26048" lon="6.75986"></trkpt><trkpt lat="45.26001" lon="6.75852"></trkpt><trkpt lat="45.25852" lon="6.75785"></trkpt><trkpt lat="45.25939" lon="6.75876"></trkpt><trkpt lat="45.25847" lon="6.75862"></trkpt><trkpt lat="45.25769" lon="6.75771"></trkpt><trkpt lat="45.25788" lon="6.75927"></trkpt><trkpt lat="45.25881" lon="6.75969"></trkpt><trkpt lat="45.25748" lon="6.75980"></trkpt><trkpt lat="45.25593" lon="6.75790"></trkpt><trkpt lat="45.25656" lon="6.75795"></trkpt><trkpt lat="45.25593" lon="6.75754"></trkpt><trkpt lat="45.25702" lon="6.75580"></trkpt><trkpt lat="45.25615" lon="6.75355"></trkpt><trkpt lat="45.25710" lon="6.75017"></trkpt><trkpt lat="45.25591" lon="6.74679"></trkpt><trkpt lat="45.25696" lon="6.74524"></trkpt><trkpt lat="45.25339" lon="6.74112"></trkpt><trkpt lat="45.25290" lon="6.73849"></trkpt><trkpt lat="45.25087" lon="6.73573"></trkpt><trkpt lat="45.25076" lon="6.73176"></trkpt><trkpt lat="45.25463" lon="6.73213"></trkpt><trkpt lat="45.25688" lon="6.72982"></trkpt><trkpt lat="45.25803" lon="6.72936"></trkpt><trkpt lat="45.25683" lon="6.73154"></trkpt><trkpt lat="45.25790" lon="6.72946"></trkpt><trkpt lat="45.25803" lon="6.72936"></trkpt><trkpt lat="45.25852" lon="6.72914"></trkpt><trkpt lat="45.25919" lon="6.72871"></trkpt><trkpt lat="45.25940" lon="6.72835"></trkpt><trkpt lat="45.26138" lon="6.72747"></trkpt><trkpt lat="45.26253" lon="6.72585"></trkpt><trkpt lat="45.26374" lon="6.72654"></trkpt><trkpt lat="45.26496" lon="6.72554"></trkpt><trkpt lat="45.26509" lon="6.71568"></trkpt><trkpt lat="45.26411" lon="6.71412"></trkpt><trkpt lat="45.26396" lon="6.71205"></trkpt><trkpt lat="45.26116" lon="6.71040"></trkpt><trkpt lat="45.26082" lon="6.70844"></trkpt><trkpt lat="45.25973" lon="6.70880"></trkpt><trkpt lat="45.25976" lon="6.70437"></trkpt><trkpt lat="45.25560" lon="6.70667"></trkpt><trkpt lat="45.25458" lon="6.70892"></trkpt><trkpt lat="45.25192" lon="6.71132"></trkpt><trkpt lat="45.25118" lon="6.71397"></trkpt><trkpt lat="45.24968" lon="6.71519"></trkpt><trkpt lat="45.23721" lon="6.71586"></trkpt><trkpt lat="45.23621" lon="6.71364"></trkpt><trkpt lat="45.23683" lon="6.70701"></trkpt><trkpt lat="45.23392" lon="6.70285"></trkpt><trkpt lat="45.23370" lon="6.70139"></trkpt><trkpt lat="45.23451" lon="6.69929"></trkpt><trkpt lat="45.23337" lon="6.69586"></trkpt><trkpt lat="45.23223" lon="6.69403"></trkpt><trkpt lat="45.23149" lon="6.69482"></trkpt><trkpt lat="45.23115" lon="6.69322"></trkpt><trkpt lat="45.22996" lon="6.69430"></trkpt><trkpt lat="45.22415" lon="6.68395"></trkpt><trkpt lat="45.22339" lon="6.67963"></trkpt><trkpt lat="45.22414" lon="6.67846"></trkpt><trkpt lat="45.22449" lon="6.67420"></trkpt><trkpt lat="45.22600" lon="6.67384"></trkpt><trkpt lat="45.22823" lon="6.67526"></trkpt><trkpt lat="45.22488" lon="6.66798"></trkpt><trkpt lat="45.22362" lon="6.66806"></trkpt><trkpt lat="45.22173" lon="6.66614"></trkpt><trkpt lat="45.22070" lon="6.66790"></trkpt><trkpt lat="45.22019" lon="6.66644"></trkpt><trkpt lat="45.21960" lon="6.66682"></trkpt><trkpt lat="45.21580" lon="6.66430"></trkpt><trkpt lat="45.21391" lon="6.66507"></trkpt><trkpt lat="45.21434" lon="6.66314"></trkpt><trkpt lat="45.21351" lon="6.66236"></trkpt><trkpt lat="45.20709" lon="6.66433"></trkpt><trkpt lat="45.20679" lon="6.66350"></trkpt><trkpt lat="45.20392" lon="6.66711"></trkpt><trkpt lat="45.20320" lon="6.67001"></trkpt><trkpt lat="45.20189" lon="6.67158"></trkpt><trkpt lat="45.20055" lon="6.68036"></trkpt><trkpt lat="45.19930" lon="6.67582"></trkpt><trkpt lat="45.19739" lon="6.67543"></trkpt><trkpt lat="45.19662" lon="6.67329"></trkpt><trkpt lat="45.19455" lon="6.67240"></trkpt><trkpt lat="45.19320" lon="6.66762"></trkpt><trkpt lat="45.19267" lon="6.66697"></trkpt><trkpt lat="45.19264" lon="6.66799"></trkpt><trkpt lat="45.19077" lon="6.66612"></trkpt><trkpt lat="45.19026" lon="6.66362"></trkpt><trkpt lat="45.18796" lon="6.66182"></trkpt><trkpt lat="45.18615" lon="6.65878"></trkpt><trkpt lat="45.18569" lon="6.65869"></trkpt><trkpt lat="45.18691" lon="6.66119"></trkpt><trkpt lat="45.18246" lon="6.65681"></trkpt><trkpt lat="45.17820" lon="6.65813"></trkpt><trkpt lat="45.17835" lon="6.65608"></trkpt><trkpt lat="45.17694" lon="6.65648"></trkpt><trkpt lat="45.17411" lon="6.65408"></trkpt><trkpt lat="45.17268" lon="6.65150"></trkpt><trkpt lat="45.17006" lon="6.65003"></trkpt><trkpt lat="45.17060" lon="6.65181"></trkpt><trkpt lat="45.16943" lon="6.65031"></trkpt><trkpt lat="45.16649" lon="6.64889"></trkpt><trkpt lat="45.16584" lon="6.64941"></trkpt><trkpt lat="45.16580" lon="6.64834"></trkpt><trkpt lat="45.16270" lon="6.64644"></trkpt><trkpt lat="45.16187" lon="6.64441"></trkpt><trkpt lat="45.15599" lon="6.64110"></trkpt><trkpt lat="45.15434" lon="6.64114"></trkpt><trkpt lat="45.15482" lon="6.64028"></trkpt><trkpt lat="45.15064" lon="6.63705"></trkpt><trkpt lat="45.14706" lon="6.63220"></trkpt><trkpt lat="45.14688" lon="6.62950"></trkpt><trkpt lat="45.14612" lon="6.62953"></trkpt><trkpt lat="45.14671" lon="6.62879"></trkpt><trkpt lat="45.14617" lon="6.62877"></trkpt><trkpt lat="45.14615" lon="6.62659"></trkpt><trkpt lat="45.14244" lon="6.62188"></trkpt><trkpt lat="45.14030" lon="6.62176"></trkpt><trkpt lat="45.13739" lon="6.61992"></trkpt><trkpt lat="45.13209" lon="6.61977"></trkpt><trkpt lat="45.12785" lon="6.61756"></trkpt><trkpt lat="45.12506" lon="6.61427"></trkpt><trkpt lat="45.12234" lon="6.60797"></trkpt><trkpt lat="45.12064" lon="6.60699"></trkpt><trkpt lat="45.12157" lon="6.60642"></trkpt><trkpt lat="45.12163" lon="6.60620"></trkpt><trkpt lat="45.12151" lon="6.60553"></trkpt><trkpt lat="45.12158" lon="6.60515"></trkpt><trkpt lat="45.12330" lon="6.60266"></trkpt><trkpt lat="45.12355" lon="6.60039"></trkpt><trkpt lat="45.12342" lon="6.59995"></trkpt><trkpt lat="45.12330" lon="6.60266"></trkpt><trkpt lat="45.12183" lon="6.60460"></trkpt><trkpt lat="45.12158" lon="6.60515"></trkpt><trkpt lat="45.12153" lon="6.60531"></trkpt><trkpt lat="45.12151" lon="6.60553"></trkpt><trkpt lat="45.12152" lon="6.60569"></trkpt><trkpt lat="45.12163" lon="6.60620"></trkpt><trkpt lat="45.12161" lon="6.60635"></trkpt><trkpt lat="45.12157" lon="6.60642"></trkpt><trkpt lat="45.12153" lon="6.60649"></trkpt><trkpt lat="45.12064" lon="6.60699"></trkpt><trkpt lat="45.11940" lon="6.60687"></trkpt><trkpt lat="45.11955" lon="6.60836"></trkpt><trkpt lat="45.11701" lon="6.60975"></trkpt><trkpt lat="45.11440" lon="6.60897"></trkpt><trkpt lat="45.11278" lon="6.60649"></trkpt><trkpt lat="45.11054" lon="6.60574"></trkpt><trkpt lat="45.09535" lon="6.60732"></trkpt><trkpt lat="45.09190" lon="6.60661"></trkpt><trkpt lat="45.09147" lon="6.60578"></trkpt><trkpt lat="45.08698" lon="6.60783"></trkpt><trkpt lat="45.08479" lon="6.60697"></trkpt><trkpt lat="45.08262" lon="6.61047"></trkpt><trkpt lat="45.07759" lon="6.61140"></trkpt><trkpt lat="45.07601" lon="6.61410"></trkpt><trkpt lat="45.07493" lon="6.61394"></trkpt><trkpt lat="45.07364" lon="6.61523"></trkpt><trkpt lat="45.07026" lon="6.62042"></trkpt><trkpt lat="45.07016" lon="6.62271"></trkpt><trkpt lat="45.06761" lon="6.62091"></trkpt><trkpt lat="45.06685" lon="6.62244"></trkpt><trkpt lat="45.06712" lon="6.62156"></trkpt><trkpt lat="45.06620" lon="6.62193"></trkpt><trkpt lat="45.06643" lon="6.62054"></trkpt><trkpt lat="45.06567" lon="6.61929"></trkpt><trkpt lat="45.06485" lon="6.62149"></trkpt><trkpt lat="45.06343" lon="6.62176"></trkpt><trkpt lat="45.06333" lon="6.62279"></trkpt><trkpt lat="45.06283" lon="6.62217"></trkpt><trkpt lat="45.06302" lon="6.62352"></trkpt><trkpt lat="45.06233" lon="6.62463"></trkpt><trkpt lat="45.05754" lon="6.62659"></trkpt><trkpt lat="45.05461" lon="6.63057"></trkpt><trkpt lat="45.04438" lon="6.63210"></trkpt><trkpt lat="45.04115" lon="6.63622"></trkpt><trkpt lat="45.03877" lon="6.63755"></trkpt><trkpt lat="45.03865" lon="6.63611"></trkpt><trkpt lat="45.03644" lon="6.63518"></trkpt><trkpt lat="45.03706" lon="6.63400"></trkpt><trkpt lat="45.03649" lon="6.63295"></trkpt><trkpt lat="45.03297" lon="6.63258"></trkpt><trkpt lat="45.03138" lon="6.63183"></trkpt><trkpt lat="45.03136" lon="6.63076"></trkpt><trkpt lat="45.02538" lon="6.63400"></trkpt><trkpt lat="45.02198" lon="6.63378"></trkpt><trkpt lat="45.01996" lon="6.63031"></trkpt><trkpt lat="45.02005" lon="6.62838"></trkpt><trkpt lat="45.01785" lon="6.62187"></trkpt><trkpt lat="45.01825" lon="6.61752"></trkpt><trkpt lat="45.01490" lon="6.61689"></trkpt><trkpt lat="45.01236" lon="6.61770"></trkpt><trkpt lat="45.01304" lon="6.62726"></trkpt><trkpt lat="45.01475" lon="6.63184"></trkpt><trkpt lat="45.01486" lon="6.63640"></trkpt><trkpt lat="45.01402" lon="6.64088"></trkpt><trkpt lat="45.01373" lon="6.64184"></trkpt><trkpt lat="45.01278" lon="6.64146"></trkpt><trkpt lat="45.01259" lon="6.64324"></trkpt><trkpt lat="45.01092" lon="6.64499"></trkpt><trkpt lat="45.00987" lon="6.64424"></trkpt><trkpt lat="45.01011" lon="6.64649"></trkpt><trkpt lat="45.00871" lon="6.64690"></trkpt><trkpt lat="45.00785" lon="6.64929"></trkpt><trkpt lat="45.00908" lon="6.64865"></trkpt><trkpt lat="45.00880" lon="6.65058"></trkpt><trkpt lat="45.00663" lon="6.65333"></trkpt><trkpt lat="45.00289" lon="6.65565"></trkpt><trkpt lat="45.00280" lon="6.65696"></trkpt><trkpt lat="45.00397" lon="6.65900"></trkpt><trkpt lat="45.00281" lon="6.66028"></trkpt><trkpt lat="45.00283" lon="6.66129"></trkpt><trkpt lat="45.00369" lon="6.66086"></trkpt><trkpt lat="45.00353" lon="6.66262"></trkpt><trkpt lat="45.00136" lon="6.66683"></trkpt><trkpt lat="45.00238" lon="6.66713"></trkpt><trkpt lat="45.00108" lon="6.66872"></trkpt><trkpt lat="45.00295" lon="6.66784"></trkpt><trkpt lat="45.00168" lon="6.67062"></trkpt><trkpt lat="45.00372" lon="6.66903"></trkpt><trkpt lat="45.00252" lon="6.67098"></trkpt><trkpt lat="45.00232" lon="6.67445"></trkpt><trkpt lat="45.00597" lon="6.67891"></trkpt><trkpt lat="45.00791" lon="6.68281"></trkpt><trkpt lat="45.01005" lon="6.69009"></trkpt><trkpt lat="45.01034" lon="6.69587"></trkpt><trkpt lat="45.00808" lon="6.69874"></trkpt><trkpt lat="44.99979" lon="6.70389"></trkpt><trkpt lat="44.99522" lon="6.70401"></trkpt><trkpt lat="44.98468" lon="6.70672"></trkpt><trkpt lat="44.97596" lon="6.70639"></trkpt><trkpt lat="44.97575" lon="6.70859"></trkpt><trkpt lat="44.96968" lon="6.71275"></trkpt><trkpt lat="44.96819" lon="6.71572"></trkpt><trkpt lat="44.96963" lon="6.71898"></trkpt><trkpt lat="44.96907" lon="6.72218"></trkpt><trkpt lat="44.96121" lon="6.72526"></trkpt><trkpt lat="44.95986" lon="6.72797"></trkpt><trkpt lat="44.95802" lon="6.72942"></trkpt><trkpt lat="44.95793" lon="6.73082"></trkpt><trkpt lat="44.95364" lon="6.73521"></trkpt><trkpt lat="44.94907" lon="6.73753"></trkpt><trkpt lat="44.93691" lon="6.74081"></trkpt><trkpt lat="44.92950" lon="6.71877"></trkpt><trkpt lat="44.92843" lon="6.71284"></trkpt><trkpt lat="44.92358" lon="6.70226"></trkpt><trkpt lat="44.92387" lon="6.69791"></trkpt><trkpt lat="44.92282" lon="6.69670"></trkpt><trkpt lat="44.92330" lon="6.69526"></trkpt><trkpt lat="44.92175" lon="6.69448"></trkpt><trkpt lat="44.92192" lon="6.69088"></trkpt><trkpt lat="44.91901" lon="6.68688"></trkpt><trkpt lat="44.91740" lon="6.68690"></trkpt><trkpt lat="44.91710" lon="6.68465"></trkpt><trkpt lat="44.91450" lon="6.68160"></trkpt><trkpt lat="44.91541" lon="6.67980"></trkpt><trkpt lat="44.91435" lon="6.67769"></trkpt><trkpt lat="44.91131" lon="6.67659"></trkpt><trkpt lat="44.90671" lon="6.66952"></trkpt><trkpt lat="44.90625" lon="6.66685"></trkpt><trkpt lat="44.90452" lon="6.66446"></trkpt><trkpt lat="44.90312" lon="6.66421"></trkpt><trkpt lat="44.90133" lon="6.65748"></trkpt><trkpt lat="44.90142" lon="6.65382"></trkpt><trkpt lat="44.89987" lon="6.64978"></trkpt><trkpt lat="44.89790" lon="6.64782"></trkpt><trkpt lat="44.89888" lon="6.64698"></trkpt><trkpt lat="44.89770" lon="6.64517"></trkpt><trkpt lat="44.89888" lon="6.64122"></trkpt><trkpt lat="44.89713" lon="6.64104"></trkpt><trkpt lat="44.89517" lon="6.63683"></trkpt><trkpt lat="44.89368" lon="6.63772"></trkpt><trkpt lat="44.89047" lon="6.63660"></trkpt><trkpt lat="44.88912" lon="6.63437"></trkpt><trkpt lat="44.88784" lon="6.63377"></trkpt><trkpt lat="44.88515" lon="6.63974"></trkpt><trkpt lat="44.88544" lon="6.64228"></trkpt><trkpt lat="44.88398" lon="6.64461"></trkpt><trkpt lat="44.88307" lon="6.64942"></trkpt><trkpt lat="44.88221" lon="6.64839"></trkpt><trkpt lat="44.88173" lon="6.65180"></trkpt><trkpt lat="44.88056" lon="6.64217"></trkpt><trkpt lat="44.87727" lon="6.63513"></trkpt><trkpt lat="44.87214" lon="6.63266"></trkpt><trkpt lat="44.87035" lon="6.63730"></trkpt><trkpt lat="44.86993" lon="6.63569"></trkpt><trkpt lat="44.86923" lon="6.63780"></trkpt><trkpt lat="44.86895" lon="6.63575"></trkpt><trkpt lat="44.86663" lon="6.63666"></trkpt><trkpt lat="44.86587" lon="6.63990"></trkpt><trkpt lat="44.86240" lon="6.64595"></trkpt><trkpt lat="44.85713" lon="6.65150"></trkpt><trkpt lat="44.84670" lon="6.65751"></trkpt><trkpt lat="44.84376" lon="6.66017"></trkpt><trkpt lat="44.84165" lon="6.66017"></trkpt><trkpt lat="44.84061" lon="6.66453"></trkpt><trkpt lat="44.83742" lon="6.66951"></trkpt><trkpt lat="44.82763" lon="6.67602"></trkpt><trkpt lat="44.82830" lon="6.67729"></trkpt><trkpt lat="44.81952" lon="6.68059"></trkpt><trkpt lat="44.81768" lon="6.68251"></trkpt><trkpt lat="44.81579" lon="6.68730"></trkpt><trkpt lat="44.81315" lon="6.68724"></trkpt><trkpt lat="44.81187" lon="6.68954"></trkpt><trkpt lat="44.81121" lon="6.68895"></trkpt><trkpt lat="44.80876" lon="6.69248"></trkpt><trkpt lat="44.80584" lon="6.69473"></trkpt><trkpt lat="44.80581" lon="6.69606"></trkpt><trkpt lat="44.80473" lon="6.69543"></trkpt><trkpt lat="44.80401" lon="6.69729"></trkpt><trkpt lat="44.80596" lon="6.69922"></trkpt><trkpt lat="44.80661" lon="6.70713"></trkpt><trkpt lat="44.80535" lon="6.70683"></trkpt><trkpt lat="44.80462" lon="6.70872"></trkpt><trkpt lat="44.80298" lon="6.70928"></trkpt><trkpt lat="44.80069" lon="6.71191"></trkpt><trkpt lat="44.79835" lon="6.72014"></trkpt><trkpt lat="44.79407" lon="6.72637"></trkpt><trkpt lat="44.79298" lon="6.72687"></trkpt><trkpt lat="44.78996" lon="6.73248"></trkpt><trkpt lat="44.78138" lon="6.73495"></trkpt><trkpt lat="44.77836" lon="6.73903"></trkpt><trkpt lat="44.77166" lon="6.74096"></trkpt><trkpt lat="44.76852" lon="6.74375"></trkpt><trkpt lat="44.76710" lon="6.74385"></trkpt><trkpt lat="44.76567" lon="6.74720"></trkpt><trkpt lat="44.76313" lon="6.74892"></trkpt><trkpt lat="44.76313" lon="6.75295"></trkpt><trkpt lat="44.76139" lon="6.75957"></trkpt><trkpt lat="44.76295" lon="6.75768"></trkpt><trkpt lat="44.76357" lon="6.75826"></trkpt><trkpt lat="44.76048" lon="6.76629"></trkpt><trkpt lat="44.76075" lon="6.76799"></trkpt><trkpt lat="44.75987" lon="6.77023"></trkpt><trkpt lat="44.76091" lon="6.77260"></trkpt><trkpt lat="44.75923" lon="6.77687"></trkpt><trkpt lat="44.75980" lon="6.77904"></trkpt><trkpt lat="44.75922" lon="6.77973"></trkpt><trkpt lat="44.75933" lon="6.78316"></trkpt><trkpt lat="44.75714" lon="6.78548"></trkpt><trkpt lat="44.75713" lon="6.78707"></trkpt><trkpt lat="44.75614" lon="6.78652"></trkpt><trkpt lat="44.75584" lon="6.78509"></trkpt><trkpt lat="44.75545" lon="6.78637"></trkpt><trkpt lat="44.75573" lon="6.78766"></trkpt><trkpt lat="44.75709" lon="6.78843"></trkpt><trkpt lat="44.75643" lon="6.78920"></trkpt><trkpt lat="44.75672" lon="6.79168"></trkpt><trkpt lat="44.75401" lon="6.79337"></trkpt><trkpt lat="44.75208" lon="6.79167"></trkpt><trkpt lat="44.74817" lon="6.79226"></trkpt><trkpt lat="44.74616" lon="6.79743"></trkpt><trkpt lat="44.74403" lon="6.79818"></trkpt><trkpt lat="44.74110" lon="6.79760"></trkpt><trkpt lat="44.73708" lon="6.79960"></trkpt><trkpt lat="44.73645" lon="6.80101"></trkpt><trkpt lat="44.73218" lon="6.80129"></trkpt><trkpt lat="44.72577" lon="6.80508"></trkpt><trkpt lat="44.72307" lon="6.80513"></trkpt><trkpt lat="44.72112" lon="6.80348"></trkpt><trkpt lat="44.71863" lon="6.80324"></trkpt><trkpt lat="44.71173" lon="6.80505"></trkpt><trkpt lat="44.71200" lon="6.80323"></trkpt><trkpt lat="44.70785" lon="6.80278"></trkpt><trkpt lat="44.70555" lon="6.80554"></trkpt><trkpt lat="44.69871" lon="6.80693"></trkpt><trkpt lat="44.69629" lon="6.80869"></trkpt><trkpt lat="44.69184" lon="6.80782"></trkpt><trkpt lat="44.68927" lon="6.80595"></trkpt><trkpt lat="44.68701" lon="6.80663"></trkpt><trkpt lat="44.68134" lon="6.80117"></trkpt><trkpt lat="44.68118" lon="6.80190"></trkpt><trkpt lat="44.67934" lon="6.80103"></trkpt><trkpt lat="44.67855" lon="6.79770"></trkpt><trkpt lat="44.67662" lon="6.79604"></trkpt><trkpt lat="44.67546" lon="6.79272"></trkpt><trkpt lat="44.67457" lon="6.78735"></trkpt><trkpt lat="44.67129" lon="6.78289"></trkpt><trkpt lat="44.67137" lon="6.78124"></trkpt><trkpt lat="44.67057" lon="6.78064"></trkpt><trkpt lat="44.67060" lon="6.78133"></trkpt><trkpt lat="44.66840" lon="6.77808"></trkpt><trkpt lat="44.66292" lon="6.78033"></trkpt><trkpt lat="44.65376" lon="6.78931"></trkpt><trkpt lat="44.65104" lon="6.79078"></trkpt><trkpt lat="44.65026" lon="6.78985"></trkpt><trkpt lat="44.64945" lon="6.79146"></trkpt><trkpt lat="44.64952" lon="6.78971"></trkpt><trkpt lat="44.65092" lon="6.78788"></trkpt><trkpt lat="44.65060" lon="6.78695"></trkpt><trkpt lat="44.64920" lon="6.78818"></trkpt><trkpt lat="44.64874" lon="6.78748"></trkpt><trkpt lat="44.64696" lon="6.78817"></trkpt><trkpt lat="44.64383" lon="6.78759"></trkpt><trkpt lat="44.63409" lon="6.79243"></trkpt><trkpt lat="44.62936" lon="6.79902"></trkpt><trkpt lat="44.62917" lon="6.80192"></trkpt><trkpt lat="44.62826" lon="6.80344"></trkpt><trkpt lat="44.62509" lon="6.80673"></trkpt><trkpt lat="44.62365" lon="6.80949"></trkpt><trkpt lat="44.61904" lon="6.81176"></trkpt><trkpt lat="44.61846" lon="6.81361"></trkpt><trkpt lat="44.61747" lon="6.81360"></trkpt><trkpt lat="44.61518" lon="6.81600"></trkpt><trkpt lat="44.61083" lon="6.82246"></trkpt><trkpt lat="44.60753" lon="6.82077"></trkpt><trkpt lat="44.60683" lon="6.82254"></trkpt><trkpt lat="44.60548" lon="6.82275"></trkpt><trkpt lat="44.60480" lon="6.82636"></trkpt><trkpt lat="44.60347" lon="6.82797"></trkpt><trkpt lat="44.60068" lon="6.82898"></trkpt><trkpt lat="44.59872" lon="6.83182"></trkpt><trkpt lat="44.59623" lon="6.83063"></trkpt><trkpt lat="44.59274" lon="6.82663"></trkpt><trkpt lat="44.59242" lon="6.82766"></trkpt><trkpt lat="44.59180" lon="6.82710"></trkpt><trkpt lat="44.59069" lon="6.82824"></trkpt><trkpt lat="44.58934" lon="6.82601"></trkpt><trkpt lat="44.58850" lon="6.82868"></trkpt><trkpt lat="44.58785" lon="6.82869"></trkpt><trkpt lat="44.58259" lon="6.82123"></trkpt><trkpt lat="44.57980" lon="6.82111"></trkpt><trkpt lat="44.57658" lon="6.81791"></trkpt><trkpt lat="44.57443" lon="6.81825"></trkpt><trkpt lat="44.57133" lon="6.81612"></trkpt><trkpt lat="44.56865" lon="6.81318"></trkpt><trkpt lat="44.56262" lon="6.81011"></trkpt><trkpt lat="44.56115" lon="6.81033"></trkpt><trkpt lat="44.55814" lon="6.80670"></trkpt><trkpt lat="44.55456" lon="6.80495"></trkpt><trkpt lat="44.55366" lon="6.80292"></trkpt><trkpt lat="44.54837" lon="6.79861"></trkpt><trkpt lat="44.54703" lon="6.79561"></trkpt><trkpt lat="44.54524" lon="6.79517"></trkpt><trkpt lat="44.54324" lon="6.79199"></trkpt><trkpt lat="44.54218" lon="6.78635"></trkpt><trkpt lat="44.54049" lon="6.78399"></trkpt><trkpt lat="44.53821" lon="6.78255"></trkpt><trkpt lat="44.53646" lon="6.78405"></trkpt><trkpt lat="44.53618" lon="6.78567"></trkpt><trkpt lat="44.53471" lon="6.78580"></trkpt><trkpt lat="44.53284" lon="6.78831"></trkpt><trkpt lat="44.53424" lon="6.79004"></trkpt><trkpt lat="44.53314" lon="6.79405"></trkpt><trkpt lat="44.52915" lon="6.79511"></trkpt><trkpt lat="44.52734" lon="6.79408"></trkpt><trkpt lat="44.52508" lon="6.79773"></trkpt><trkpt lat="44.52472" lon="6.79648"></trkpt><trkpt lat="44.52598" lon="6.80318"></trkpt><trkpt lat="44.52529" lon="6.80740"></trkpt><trkpt lat="44.52040" lon="6.81427"></trkpt><trkpt lat="44.52009" lon="6.81579"></trkpt><trkpt lat="44.51888" lon="6.81657"></trkpt><trkpt lat="44.51650" lon="6.82233"></trkpt><trkpt lat="44.50798" lon="6.83616"></trkpt><trkpt lat="44.50544" lon="6.83775"></trkpt><trkpt lat="44.50244" lon="6.84213"></trkpt><trkpt lat="44.50179" lon="6.84180"></trkpt><trkpt lat="44.50162" lon="6.84422"></trkpt><trkpt lat="44.49995" lon="6.84665"></trkpt><trkpt lat="44.49765" lon="6.84663"></trkpt><trkpt lat="44.49767" lon="6.84875"></trkpt><trkpt lat="44.49646" lon="6.84982"></trkpt><trkpt lat="44.49223" lon="6.85074"></trkpt><trkpt lat="44.48961" lon="6.84896"></trkpt><trkpt lat="44.48776" lon="6.85043"></trkpt><trkpt lat="44.48366" lon="6.84723"></trkpt><trkpt lat="44.48048" lon="6.84902"></trkpt><trkpt lat="44.47739" lon="6.85223"></trkpt><trkpt lat="44.47728" lon="6.85161"></trkpt><trkpt lat="44.47637" lon="6.85338"></trkpt><trkpt lat="44.47619" lon="6.85134"></trkpt><trkpt lat="44.47507" lon="6.85281"></trkpt><trkpt lat="44.47470" lon="6.85096"></trkpt><trkpt lat="44.47441" lon="6.85160"></trkpt><trkpt lat="44.47398" lon="6.85018"></trkpt><trkpt lat="44.47197" lon="6.84869"></trkpt><trkpt lat="44.47055" lon="6.85031"></trkpt><trkpt lat="44.46607" lon="6.84950"></trkpt><trkpt lat="44.46551" lon="6.85076"></trkpt><trkpt lat="44.46284" lon="6.84758"></trkpt><trkpt lat="44.46013" lon="6.85094"></trkpt><trkpt lat="44.45760" lon="6.85128"></trkpt><trkpt lat="44.45767" lon="6.85304"></trkpt><trkpt lat="44.45699" lon="6.85373"></trkpt><trkpt lat="44.45336" lon="6.85095"></trkpt><trkpt lat="44.45089" lon="6.84647"></trkpt><trkpt lat="44.45059" lon="6.84711"></trkpt><trkpt lat="44.44933" lon="6.84636"></trkpt><trkpt lat="44.44805" lon="6.85059"></trkpt><trkpt lat="44.44321" lon="6.85569"></trkpt><trkpt lat="44.44047" lon="6.86165"></trkpt><trkpt lat="44.43874" lon="6.86348"></trkpt><trkpt lat="44.43775" lon="6.86807"></trkpt><trkpt lat="44.43575" lon="6.87049"></trkpt><trkpt lat="44.43120" lon="6.87968"></trkpt><trkpt lat="44.43111" lon="6.88162"></trkpt><trkpt lat="44.42839" lon="6.88713"></trkpt><trkpt lat="44.42731" lon="6.89156"></trkpt><trkpt lat="44.42609" lon="6.88915"></trkpt><trkpt lat="44.42335" lon="6.88906"></trkpt><trkpt lat="44.42060" lon="6.88777"></trkpt><trkpt lat="44.42057" lon="6.88695"></trkpt><trkpt lat="44.41774" lon="6.88677"></trkpt><trkpt lat="44.41753" lon="6.88563"></trkpt><trkpt lat="44.41409" lon="6.88482"></trkpt><trkpt lat="44.40319" lon="6.87831"></trkpt><trkpt lat="44.39896" lon="6.87700"></trkpt><trkpt lat="44.39414" lon="6.87784"></trkpt><trkpt lat="44.39225" lon="6.87708"></trkpt><trkpt lat="44.39042" lon="6.87478"></trkpt><trkpt lat="44.38896" lon="6.87565"></trkpt><trkpt lat="44.38873" lon="6.87490"></trkpt><trkpt lat="44.38815" lon="6.87587"></trkpt><trkpt lat="44.38444" lon="6.87241"></trkpt><trkpt lat="44.38046" lon="6.87287"></trkpt><trkpt lat="44.37792" lon="6.87023"></trkpt><trkpt lat="44.37321" lon="6.86960"></trkpt><trkpt lat="44.37027" lon="6.87064"></trkpt><trkpt lat="44.36683" lon="6.87356"></trkpt><trkpt lat="44.36567" lon="6.87532"></trkpt><trkpt lat="44.36583" lon="6.87944"></trkpt><trkpt lat="44.36448" lon="6.88085"></trkpt><trkpt lat="44.36025" lon="6.88191"></trkpt><trkpt lat="44.35657" lon="6.88036"></trkpt><trkpt lat="44.35680" lon="6.88170"></trkpt><trkpt lat="44.35578" lon="6.88096"></trkpt><trkpt lat="44.35438" lon="6.88238"></trkpt><trkpt lat="44.35382" lon="6.88385"></trkpt><trkpt lat="44.35425" lon="6.88510"></trkpt><trkpt lat="44.35202" lon="6.88512"></trkpt><trkpt lat="44.35168" lon="6.88373"></trkpt><trkpt lat="44.34884" lon="6.88336"></trkpt><trkpt lat="44.34821" lon="6.88227"></trkpt><trkpt lat="44.34468" lon="6.88254"></trkpt><trkpt lat="44.34305" lon="6.88090"></trkpt><trkpt lat="44.34140" lon="6.88102"></trkpt><trkpt lat="44.34084" lon="6.87902"></trkpt><trkpt lat="44.33917" lon="6.87765"></trkpt><trkpt lat="44.33970" lon="6.87607"></trkpt><trkpt lat="44.33588" lon="6.87351"></trkpt><trkpt lat="44.33519" lon="6.87159"></trkpt><trkpt lat="44.33394" lon="6.87192"></trkpt><trkpt lat="44.33340" lon="6.86690"></trkpt><trkpt lat="44.33390" lon="6.86522"></trkpt><trkpt lat="44.32761" lon="6.86435"></trkpt><trkpt lat="44.32653" lon="6.86515"></trkpt><trkpt lat="44.32607" lon="6.86077"></trkpt><trkpt lat="44.32509" lon="6.86001"></trkpt><trkpt lat="44.32204" lon="6.86174"></trkpt><trkpt lat="44.32255" lon="6.85645"></trkpt><trkpt lat="44.31752" lon="6.85989"></trkpt><trkpt lat="44.31437" lon="6.85816"></trkpt><trkpt lat="44.31538" lon="6.86595"></trkpt><trkpt lat="44.31485" lon="6.86494"></trkpt><trkpt lat="44.31404" lon="6.86704"></trkpt><trkpt lat="44.31224" lon="6.86821"></trkpt><trkpt lat="44.31018" lon="6.86653"></trkpt><trkpt lat="44.30733" lon="6.86755"></trkpt><trkpt lat="44.30557" lon="6.87346"></trkpt><trkpt lat="44.30232" lon="6.87455"></trkpt><trkpt lat="44.30079" lon="6.87733"></trkpt><trkpt lat="44.30055" lon="6.87933"></trkpt><trkpt lat="44.29777" lon="6.88007"></trkpt><trkpt lat="44.29741" lon="6.88243"></trkpt><trkpt lat="44.29325" lon="6.88537"></trkpt><trkpt lat="44.29228" lon="6.88510"></trkpt><trkpt lat="44.29376" lon="6.88353"></trkpt><trkpt lat="44.29477" lon="6.87700"></trkpt><trkpt lat="44.29161" lon="6.87795"></trkpt><trkpt lat="44.29011" lon="6.87678"></trkpt><trkpt lat="44.28693" lon="6.87336"></trkpt><trkpt lat="44.28668" lon="6.87110"></trkpt><trkpt lat="44.28508" lon="6.87048"></trkpt><trkpt lat="44.28518" lon="6.86700"></trkpt><trkpt lat="44.28331" lon="6.86663"></trkpt><trkpt lat="44.28273" lon="6.86760"></trkpt><trkpt lat="44.28350" lon="6.87676"></trkpt><trkpt lat="44.28211" lon="6.88161"></trkpt><trkpt lat="44.28308" lon="6.88291"></trkpt><trkpt lat="44.28377" lon="6.88656"></trkpt><trkpt lat="44.28416" lon="6.89424"></trkpt><trkpt lat="44.28302" lon="6.89793"></trkpt><trkpt lat="44.27853" lon="6.90089"></trkpt><trkpt lat="44.27509" lon="6.90517"></trkpt><trkpt lat="44.27175" lon="6.91328"></trkpt><trkpt lat="44.26773" lon="6.91635"></trkpt><trkpt lat="44.26690" lon="6.91477"></trkpt><trkpt lat="44.26355" lon="6.91688"></trkpt><trkpt lat="44.26141" lon="6.91700"></trkpt><trkpt lat="44.25660" lon="6.92254"></trkpt><trkpt lat="44.25672" lon="6.92468"></trkpt><trkpt lat="44.25507" lon="6.92670"></trkpt><trkpt lat="44.25250" lon="6.92851"></trkpt><trkpt lat="44.24829" lon="6.93362"></trkpt><trkpt lat="44.24639" lon="6.93524"></trkpt><trkpt lat="44.24524" lon="6.93482"></trkpt><trkpt lat="44.24300" lon="6.93700"></trkpt><trkpt lat="44.24021" lon="6.93668"></trkpt><trkpt lat="44.23739" lon="6.93810"></trkpt><trkpt lat="44.23448" lon="6.93405"></trkpt><trkpt lat="44.23285" lon="6.93614"></trkpt><trkpt lat="44.23058" lon="6.93182"></trkpt><trkpt lat="44.23060" lon="6.92831"></trkpt><trkpt lat="44.23009" lon="6.93020"></trkpt><trkpt lat="44.22910" lon="6.93003"></trkpt><trkpt lat="44.22839" lon="6.93136"></trkpt><trkpt lat="44.22817" lon="6.93012"></trkpt><trkpt lat="44.22727" lon="6.93171"></trkpt><trkpt lat="44.22611" lon="6.92882"></trkpt><trkpt lat="44.22639" lon="6.92713"></trkpt><trkpt lat="44.22276" lon="6.92865"></trkpt><trkpt lat="44.22030" lon="6.92653"></trkpt><trkpt lat="44.21945" lon="6.92916"></trkpt><trkpt lat="44.21838" lon="6.92794"></trkpt><trkpt lat="44.21762" lon="6.93259"></trkpt><trkpt lat="44.21505" lon="6.93449"></trkpt><trkpt lat="44.21594" lon="6.93493"></trkpt><trkpt lat="44.21582" lon="6.93582"></trkpt><trkpt lat="44.21412" lon="6.93744"></trkpt><trkpt lat="44.21521" lon="6.94004"></trkpt><trkpt lat="44.21384" lon="6.93910"></trkpt><trkpt lat="44.21345" lon="6.94024"></trkpt><trkpt lat="44.21298" lon="6.93962"></trkpt><trkpt lat="44.21062" lon="6.94466"></trkpt><trkpt lat="44.20628" lon="6.94016"></trkpt><trkpt lat="44.20075" lon="6.93973"></trkpt><trkpt lat="44.20084" lon="6.93671"></trkpt><trkpt lat="44.19965" lon="6.93401"></trkpt><trkpt lat="44.20027" lon="6.93291"></trkpt><trkpt lat="44.20040" lon="6.92859"></trkpt><trkpt lat="44.19941" lon="6.92676"></trkpt><trkpt lat="44.19702" lon="6.92737"></trkpt><trkpt lat="44.19456" lon="6.92949"></trkpt><trkpt lat="44.19353" lon="6.92831"></trkpt><trkpt lat="44.19147" lon="6.93002"></trkpt><trkpt lat="44.19037" lon="6.92720"></trkpt><trkpt lat="44.18929" lon="6.92881"></trkpt><trkpt lat="44.18896" lon="6.92751"></trkpt><trkpt lat="44.18812" lon="6.92813"></trkpt><trkpt lat="44.18632" lon="6.92667"></trkpt><trkpt lat="44.17879" lon="6.92678"></trkpt><trkpt lat="44.17081" lon="6.93091"></trkpt><trkpt lat="44.16872" lon="6.93255"></trkpt><trkpt lat="44.16559" lon="6.93920"></trkpt><trkpt lat="44.16450" lon="6.94581"></trkpt><trkpt lat="44.16601" lon="6.94721"></trkpt><trkpt lat="44.16504" lon="6.94873"></trkpt><trkpt lat="44.16601" lon="6.94956"></trkpt><trkpt lat="44.16591" lon="6.95046"></trkpt><trkpt lat="44.16429" lon="6.95132"></trkpt><trkpt lat="44.16303" lon="6.95359"></trkpt><trkpt lat="44.16049" lon="6.95450"></trkpt><trkpt lat="44.15420" lon="6.95415"></trkpt><trkpt lat="44.14918" lon="6.95049"></trkpt><trkpt lat="44.14449" lon="6.95269"></trkpt><trkpt lat="44.14638" lon="6.95341"></trkpt><trkpt lat="44.14407" lon="6.95361"></trkpt><trkpt lat="44.14255" lon="6.95522"></trkpt><trkpt lat="44.13745" lon="6.96692"></trkpt><trkpt lat="44.13736" lon="6.96989"></trkpt><trkpt lat="44.13534" lon="6.97137"></trkpt><trkpt lat="44.13594" lon="6.97183"></trkpt><trkpt lat="44.13427" lon="6.97678"></trkpt><trkpt lat="44.13487" lon="6.97735"></trkpt><trkpt lat="44.13385" lon="6.97816"></trkpt><trkpt lat="44.13399" lon="6.98058"></trkpt><trkpt lat="44.13250" lon="6.98220"></trkpt><trkpt lat="44.13282" lon="6.98356"></trkpt><trkpt lat="44.13148" lon="6.98607"></trkpt><trkpt lat="44.13184" lon="6.99055"></trkpt><trkpt lat="44.13129" lon="6.99204"></trkpt><trkpt lat="44.13236" lon="6.99410"></trkpt><trkpt lat="44.13399" lon="6.99252"></trkpt><trkpt lat="44.13462" lon="6.98914"></trkpt><trkpt lat="44.13551" lon="6.98990"></trkpt><trkpt lat="44.13723" lon="6.99438"></trkpt><trkpt lat="44.13626" lon="6.99827"></trkpt><trkpt lat="44.13880" lon="7.00724"></trkpt><trkpt lat="44.14037" lon="7.00678"></trkpt><trkpt lat="44.14079" lon="7.00861"></trkpt><trkpt lat="44.14320" lon="7.01021"></trkpt><trkpt lat="44.14407" lon="7.00969"></trkpt><trkpt lat="44.14127" lon="7.01466"></trkpt><trkpt lat="44.14358" lon="7.02259"></trkpt><trkpt lat="44.14350" lon="7.02954"></trkpt><trkpt lat="44.13779" lon="7.05446"></trkpt><trkpt lat="44.13419" lon="7.05611"></trkpt><trkpt lat="44.13194" lon="7.05931"></trkpt><trkpt lat="44.12657" lon="7.06262"></trkpt><trkpt lat="44.12662" lon="7.05925"></trkpt><trkpt lat="44.12245" lon="7.06179"></trkpt><trkpt lat="44.12219" lon="7.06322"></trkpt><trkpt lat="44.11922" lon="7.06275"></trkpt><trkpt lat="44.11663" lon="7.06403"></trkpt><trkpt lat="44.11394" lon="7.07245"></trkpt><trkpt lat="44.11302" lon="7.07225"></trkpt><trkpt lat="44.11156" lon="7.07417"></trkpt><trkpt lat="44.10963" lon="7.07430"></trkpt><trkpt lat="44.10747" lon="7.07731"></trkpt><trkpt lat="44.10445" lon="7.08441"></trkpt><trkpt lat="44.10161" lon="7.08809"></trkpt><trkpt lat="44.09543" lon="7.09040"></trkpt><trkpt lat="44.09240" lon="7.08821"></trkpt><trkpt lat="44.09148" lon="7.08553"></trkpt><trkpt lat="44.08992" lon="7.08525"></trkpt><trkpt lat="44.08946" lon="7.08793"></trkpt><trkpt lat="44.09107" lon="7.09562"></trkpt><trkpt lat="44.08988" lon="7.09454"></trkpt><trkpt lat="44.09047" lon="7.09637"></trkpt><trkpt lat="44.08931" lon="7.09608"></trkpt><trkpt lat="44.08907" lon="7.09398"></trkpt><trkpt lat="44.08858" lon="7.09649"></trkpt><trkpt lat="44.08781" lon="7.09630"></trkpt><trkpt lat="44.08827" lon="7.09368"></trkpt><trkpt lat="44.08617" lon="7.09706"></trkpt><trkpt lat="44.08708" lon="7.09990"></trkpt><trkpt lat="44.08682" lon="7.10264"></trkpt><trkpt lat="44.08551" lon="7.10301"></trkpt><trkpt lat="44.08560" lon="7.10458"></trkpt><trkpt lat="44.08445" lon="7.10550"></trkpt><trkpt lat="44.08329" lon="7.10498"></trkpt><trkpt lat="44.08069" lon="7.10708"></trkpt><trkpt lat="44.08213" lon="7.10756"></trkpt><trkpt lat="44.08004" lon="7.10806"></trkpt><trkpt lat="44.08001" lon="7.10729"></trkpt><trkpt lat="44.07977" lon="7.10833"></trkpt><trkpt lat="44.08060" lon="7.10826"></trkpt><trkpt lat="44.07956" lon="7.10883"></trkpt><trkpt lat="44.07945" lon="7.10796"></trkpt><trkpt lat="44.07662" lon="7.10998"></trkpt><trkpt lat="44.07559" lon="7.11242"></trkpt><trkpt lat="44.07556" lon="7.11351"></trkpt><trkpt lat="44.07669" lon="7.11248"></trkpt><trkpt lat="44.07468" lon="7.12005"></trkpt><trkpt lat="44.07196" lon="7.11740"></trkpt><trkpt lat="44.06995" lon="7.12009"></trkpt><trkpt lat="44.07018" lon="7.12590"></trkpt><trkpt lat="44.06932" lon="7.12702"></trkpt><trkpt lat="44.06941" lon="7.12925"></trkpt><trkpt lat="44.06765" lon="7.13148"></trkpt><trkpt lat="44.06433" lon="7.13032"></trkpt><trkpt lat="44.06400" lon="7.13255"></trkpt><trkpt lat="44.06491" lon="7.13577"></trkpt><trkpt lat="44.06711" lon="7.13810"></trkpt><trkpt lat="44.06707" lon="7.14171"></trkpt><trkpt lat="44.06795" lon="7.14362"></trkpt><trkpt lat="44.06694" lon="7.14461"></trkpt><trkpt lat="44.06857" lon="7.14501"></trkpt><trkpt lat="44.06797" lon="7.14694"></trkpt><trkpt lat="44.06969" lon="7.15141"></trkpt><trkpt lat="44.06899" lon="7.15214"></trkpt><trkpt lat="44.07012" lon="7.15423"></trkpt><trkpt lat="44.06918" lon="7.15612"></trkpt><trkpt lat="44.06872" lon="7.16807"></trkpt><trkpt lat="44.06985" lon="7.17358"></trkpt><trkpt lat="44.06824" lon="7.17598"></trkpt><trkpt lat="44.06811" lon="7.17691"></trkpt><trkpt lat="44.06867" lon="7.17670"></trkpt><trkpt lat="44.06611" lon="7.18191"></trkpt><trkpt lat="44.06498" lon="7.18627"></trkpt><trkpt lat="44.06556" lon="7.19663"></trkpt><trkpt lat="44.06668" lon="7.20096"></trkpt><trkpt lat="44.06545" lon="7.20210"></trkpt><trkpt lat="44.06564" lon="7.20313"></trkpt><trkpt lat="44.06205" lon="7.20468"></trkpt><trkpt lat="44.06181" lon="7.20634"></trkpt><trkpt lat="44.06033" lon="7.20820"></trkpt><trkpt lat="44.06064" lon="7.20916"></trkpt><trkpt lat="44.05749" lon="7.21460"></trkpt><trkpt lat="44.05504" lon="7.21250"></trkpt><trkpt lat="44.05282" lon="7.21279"></trkpt><trkpt lat="44.05110" lon="7.21103"></trkpt><trkpt lat="44.05169" lon="7.20728"></trkpt><trkpt lat="44.04718" lon="7.20113"></trkpt><trkpt lat="44.04279" lon="7.20480"></trkpt><trkpt lat="44.03938" lon="7.20414"></trkpt><trkpt lat="44.03756" lon="7.20875"></trkpt><trkpt lat="44.03230" lon="7.21162"></trkpt><trkpt lat="44.03182" lon="7.21540"></trkpt><trkpt lat="44.02901" lon="7.21754"></trkpt><trkpt lat="44.02701" lon="7.22065"></trkpt><trkpt lat="44.02672" lon="7.22257"></trkpt><trkpt lat="44.02507" lon="7.22432"></trkpt><trkpt lat="44.02461" lon="7.22708"></trkpt><trkpt lat="44.02283" lon="7.23031"></trkpt><trkpt lat="44.01969" lon="7.23163"></trkpt><trkpt lat="44.01777" lon="7.23464"></trkpt><trkpt lat="44.01732" lon="7.24230"></trkpt><trkpt lat="44.01582" lon="7.24636"></trkpt><trkpt lat="44.01371" lon="7.24906"></trkpt><trkpt lat="44.01238" lon="7.24555"></trkpt><trkpt lat="44.01164" lon="7.24813"></trkpt><trkpt lat="44.01076" lon="7.24849"></trkpt><trkpt lat="44.00987" lon="7.25080"></trkpt><trkpt lat="44.00957" lon="7.25005"></trkpt><trkpt lat="44.00907" lon="7.25056"></trkpt><trkpt lat="44.00900" lon="7.24421"></trkpt><trkpt lat="44.01019" lon="7.23864"></trkpt><trkpt lat="44.00891" lon="7.23644"></trkpt><trkpt lat="44.00301" lon="7.23506"></trkpt><trkpt lat="44.00039" lon="7.23683"></trkpt><trkpt lat="43.99549" lon="7.23436"></trkpt><trkpt lat="43.99310" lon="7.23191"></trkpt><trkpt lat="43.98904" lon="7.23099"></trkpt><trkpt lat="43.98765" lon="7.23112"></trkpt><trkpt lat="43.98203" lon="7.23602"></trkpt><trkpt lat="43.97890" lon="7.23421"></trkpt><trkpt lat="43.97663" lon="7.23668"></trkpt><trkpt lat="43.97352" lon="7.23719"></trkpt><trkpt lat="43.97153" lon="7.23933"></trkpt><trkpt lat="43.96941" lon="7.23755"></trkpt><trkpt lat="43.96561" lon="7.23783"></trkpt><trkpt lat="43.95862" lon="7.24315"></trkpt><trkpt lat="43.95504" lon="7.24181"></trkpt><trkpt lat="43.94789" lon="7.24423"></trkpt><trkpt lat="43.94634" lon="7.24262"></trkpt><trkpt lat="43.94545" lon="7.23972"></trkpt><trkpt lat="43.94244" lon="7.23977"></trkpt><trkpt lat="43.94269" lon="7.23715"></trkpt><trkpt lat="43.94197" lon="7.23860"></trkpt><trkpt lat="43.93804" lon="7.23978"></trkpt><trkpt lat="43.93779" lon="7.24195"></trkpt><trkpt lat="43.93662" lon="7.24317"></trkpt><trkpt lat="43.93429" lon="7.24301"></trkpt><trkpt lat="43.93152" lon="7.24538"></trkpt><trkpt lat="43.92753" lon="7.24541"></trkpt><trkpt lat="43.92569" lon="7.24402"></trkpt><trkpt lat="43.92410" lon="7.24580"></trkpt><trkpt lat="43.92301" lon="7.24387"></trkpt><trkpt lat="43.92052" lon="7.24352"></trkpt><trkpt lat="43.91709" lon="7.24760"></trkpt><trkpt lat="43.91619" lon="7.24723"></trkpt><trkpt lat="43.91415" lon="7.24892"></trkpt><trkpt lat="43.91437" lon="7.25018"></trkpt><trkpt lat="43.91363" lon="7.25066"></trkpt><trkpt lat="43.91463" lon="7.25243"></trkpt><trkpt lat="43.91465" lon="7.25418"></trkpt><trkpt lat="43.91259" lon="7.25444"></trkpt><trkpt lat="43.90910" lon="7.25323"></trkpt><trkpt lat="43.90880" lon="7.25215"></trkpt><trkpt lat="43.90977" lon="7.25280"></trkpt><trkpt lat="43.90944" lon="7.25171"></trkpt><trkpt lat="43.90792" lon="7.24935"></trkpt><trkpt lat="43.90724" lon="7.25019"></trkpt><trkpt lat="43.90664" lon="7.24680"></trkpt><trkpt lat="43.90485" lon="7.24442"></trkpt><trkpt lat="43.90447" lon="7.24619"></trkpt><trkpt lat="43.90209" lon="7.24736"></trkpt><trkpt lat="43.90012" lon="7.24623"></trkpt><trkpt lat="43.89655" lon="7.24759"></trkpt><trkpt lat="43.89660" lon="7.24473"></trkpt><trkpt lat="43.89284" lon="7.24768"></trkpt><trkpt lat="43.89027" lon="7.24451"></trkpt><trkpt lat="43.88997" lon="7.24202"></trkpt><trkpt lat="43.88868" lon="7.24155"></trkpt><trkpt lat="43.88730" lon="7.24311"></trkpt><trkpt lat="43.88673" lon="7.24115"></trkpt><trkpt lat="43.88601" lon="7.24265"></trkpt><trkpt lat="43.88296" lon="7.23592"></trkpt><trkpt lat="43.88099" lon="7.23419"></trkpt><trkpt lat="43.88152" lon="7.23318"></trkpt><trkpt lat="43.87976" lon="7.23313"></trkpt><trkpt lat="43.87943" lon="7.23115"></trkpt><trkpt lat="43.87943" lon="7.23256"></trkpt><trkpt lat="43.87884" lon="7.23125"></trkpt><trkpt lat="43.87835" lon="7.23197"></trkpt><trkpt lat="43.87811" lon="7.23085"></trkpt><trkpt lat="43.87550" lon="7.22851"></trkpt><trkpt lat="43.87541" lon="7.22704"></trkpt><trkpt lat="43.87458" lon="7.22739"></trkpt><trkpt lat="43.87451" lon="7.22632"></trkpt><trkpt lat="43.87325" lon="7.22692"></trkpt><trkpt lat="43.87191" lon="7.22500"></trkpt><trkpt lat="43.87087" lon="7.22654"></trkpt><trkpt lat="43.86996" lon="7.22582"></trkpt><trkpt lat="43.86599" lon="7.22924"></trkpt><trkpt lat="43.86563" lon="7.22762"></trkpt><trkpt lat="43.86006" lon="7.22905"></trkpt><trkpt lat="43.85887" lon="7.22613"></trkpt><trkpt lat="43.85746" lon="7.22611"></trkpt><trkpt lat="43.85547" lon="7.22747"></trkpt><trkpt lat="43.85406" lon="7.23246"></trkpt><trkpt lat="43.85150" lon="7.23502"></trkpt><trkpt lat="43.84985" lon="7.23467"></trkpt><trkpt lat="43.84783" lon="7.23264"></trkpt><trkpt lat="43.84599" lon="7.23280"></trkpt><trkpt lat="43.84275" lon="7.23585"></trkpt><trkpt lat="43.84197" lon="7.23546"></trkpt><trkpt lat="43.84177" lon="7.23678"></trkpt><trkpt lat="43.84103" lon="7.23649"></trkpt><trkpt lat="43.84071" lon="7.23751"></trkpt><trkpt lat="43.83968" lon="7.23665"></trkpt><trkpt lat="43.83767" lon="7.23842"></trkpt><trkpt lat="43.83617" lon="7.23782"></trkpt><trkpt lat="43.83460" lon="7.24044"></trkpt><trkpt lat="43.83601" lon="7.24185"></trkpt><trkpt lat="43.83544" lon="7.24646"></trkpt><trkpt lat="43.82747" lon="7.24962"></trkpt><trkpt lat="43.82021" lon="7.25543"></trkpt><trkpt lat="43.81861" lon="7.25766"></trkpt><trkpt lat="43.81610" lon="7.25369"></trkpt><trkpt lat="43.81189" lon="7.25329"></trkpt><trkpt lat="43.80842" lon="7.25043"></trkpt><trkpt lat="43.80277" lon="7.25148"></trkpt><trkpt lat="43.80091" lon="7.24918"></trkpt><trkpt lat="43.80037" lon="7.24673"></trkpt><trkpt lat="43.79606" lon="7.24903"></trkpt><trkpt lat="43.79169" lon="7.24748"></trkpt><trkpt lat="43.78949" lon="7.24800"></trkpt><trkpt lat="43.78738" lon="7.24421"></trkpt><trkpt lat="43.78475" lon="7.24381"></trkpt><trkpt lat="43.78219" lon="7.25103"></trkpt><trkpt lat="43.78164" lon="7.24903"></trkpt><trkpt lat="43.77927" lon="7.24842"></trkpt><trkpt lat="43.76687" lon="7.25047"></trkpt><trkpt lat="43.76022" lon="7.25309"></trkpt><trkpt lat="43.75562" lon="7.25584"></trkpt><trkpt lat="43.75479" lon="7.25780"></trkpt><trkpt lat="43.75230" lon="7.25870"></trkpt><trkpt lat="43.74684" lon="7.25893"></trkpt><trkpt lat="43.74533" lon="7.25692"></trkpt><trkpt lat="43.74287" lon="7.25617"></trkpt><trkpt lat="43.74186" lon="7.25750"></trkpt><trkpt lat="43.74291" lon="7.25884"></trkpt><trkpt lat="43.74380" lon="7.26257"></trkpt><trkpt lat="43.74255" lon="7.26366"></trkpt><trkpt lat="43.74003" lon="7.26251"></trkpt><trkpt lat="43.73580" lon="7.26353"></trkpt><trkpt lat="43.73323" lon="7.26225"></trkpt><trkpt lat="43.73388" lon="7.26182"></trkpt><trkpt lat="43.73344" lon="7.26145"></trkpt><trkpt lat="43.72933" lon="7.26076"></trkpt><trkpt lat="43.72398" lon="7.26348"></trkpt><trkpt lat="43.72023" lon="7.26298"></trkpt><trkpt lat="43.71803" lon="7.25625"></trkpt><trkpt lat="43.71620" lon="7.25755"></trkpt><trkpt lat="43.71474" lon="7.25411"></trkpt><trkpt lat="43.71000" lon="7.25703"></trkpt><trkpt lat="43.70950" lon="7.25601"></trkpt><trkpt lat="43.69864" lon="7.25621"></trkpt><trkpt lat="43.69789" lon="7.25774"></trkpt><trkpt lat="43.69425" lon="7.25756"></trkpt></trkseg></trk></gpx>
